{"restaurants":[{"name":"Jérôme Feck","address":"19 pl. Mgr-Tissier","zipcode":"51000","city":"Châlons-en-Champagne","chef":"","stars":"1"},{"name":"Maximin Hellio","address":"64 Rue Gambetta","zipcode":"14800","city":"DEAUVILLE","chef":"Hellio Maximin","stars":"1"},{"name":"Les Bories","address":"rte de l'Abbaye de Sénanque","zipcode":"84220","city":"Gordes","chef":"MIRER Gregory","stars":"1"},{"name":"La Table du Connétable","address":"4 Rue du Connétable","zipcode":"60500","city":"Chantilly","chef":"Julien Lucas","stars":"1"},{"name":"Le Grand Véfour","address":"17 rue de Beaujolais","zipcode":"75001","city":"Paris","chef":"Guy Martin","stars":"2"},{"name":"L'Archeste","address":"79 rue de la Tour","zipcode":"75116","city":"Paris","chef":"Yoshiaki Ito","stars":"1"},{"name":"La Fourchette des Ducs","address":"6 r. de la Gare","zipcode":"67210","city":"Obernai","chef":"Nicolas Stamm","stars":"2"},{"name":"Auberge de la Brie","address":"14 av. Alphonse Boulingre","zipcode":"77860","city":"Couilly-Pont-aux-Dames","chef":"Alain Pavard","stars":"1"},{"name":"L'Amaryllis","address":"chemin de Martorey","zipcode":"71100","city":"Saint-Rémy","chef":"Cédric Burtin","stars":"1"},{"name":"Michel Sarran","address":"21 bd A.-Duportal","zipcode":"31000","city":"Toulouse","chef":"","stars":"2"},{"name":"Loiseau rive Gauche","address":"5 rue de Bourgogne","zipcode":"75007","city":"Paris 07","chef":"Maxime Laurenson","stars":"1"},{"name":"Une Île","address":"9 r. Max-Richard","zipcode":"49000","city":"Angers","chef":"Gérard Bossé","stars":"1"},{"name":"Les Jardins de l'Espadon","address":"15 place Vendôme","zipcode":"75001","city":"Paris","chef":"Nicolas Sale","stars":"1"},{"name":"Le Pily","address":"39 Grande-Rue","zipcode":"50100","city":"Cherbourg-en-Cotentin","chef":"Pierre Marion","stars":"1"},{"name":"Côté Jardin","address":"14 rte de Bourges","zipcode":"45500","city":"Gien","chef":"Arnaud Billard","stars":"1"},{"name":"La Grande Cascade","address":"Bois de Boulogne, Carrefour de Longchamp","zipcode":"75016","city":"Paris","chef":"Frédéric Robert","stars":"1"},{"name":"Dan B. - La Table de Ventabren","address":"r. F. -Mistral","zipcode":"13122","city":"Ventabren","chef":"Dan Bessoudo","stars":"1"},{"name":"Le Millénaire","address":"4 rue Bertin","zipcode":"51100","city":"Reims","chef":"Laurent et Thibault Laplaige","stars":"1"},{"name":"I Salti","address":"route du Reginu","zipcode":"20226","city":"Belgodère","chef":"David Doury","stars":"1"},{"name":"G.a. au Manoir de Rétival","address":"2 rue St. Clair","zipcode":"76490","city":"Caudebec-en-Caux","chef":"David Goerne","stars":"1"},{"name":"Pic","address":"285 avenue Victor Hugo","zipcode":"26000","city":"Valence","chef":"Anne-Sophie Pic","stars":"3"},{"name":"L'Alchémille","address":"53 rte de Lapoutroie","zipcode":"68240","city":"Kaysersberg","chef":"Jérôme Jaegle","stars":"1"},{"name":"La Coopérative","address":"2A Route de Caladroy","zipcode":"66720","city":"Bélesta","chef":"LEMAL Laurent","stars":"1"},{"name":"Pierre","address":"7-9 rue Joseph Dufour","zipcode":"71000","city":"Mâcon","chef":"Christian Gaulin","stars":"1"},{"name":"1920","address":"373 chemin des follières","zipcode":"74120","city":"Megève","chef":"Julien Gatillon","stars":"2"},{"name":"Le Neuvième Art","address":"173 r. Cuvier","zipcode":"69006","city":"Lyon","chef":"Christophe Roure","stars":"2"},{"name":"Le Kintessence","address":"Rue des Clarines","zipcode":"73120","city":"Courchevel 1850","chef":"Jean-Rémi Caillon","stars":"2"},{"name":"Maison Clovis","address":"19 bd Brotteaux","zipcode":"69006","city":"Lyon","chef":"Clovis Khoury","stars":"1"},{"name":"Auberge du Vieux Puits","address":"5 Avenue Saint-Victor","zipcode":"11360","city":"Fontjoncouse","chef":"Gilles Goujon","stars":"3"},{"name":"Raphaël Vionnet","address":"43 Avenue du Général Leclerc","zipcode":"74200","city":"Thonon-les-Bains","chef":"Raphaël Vionnet","stars":"1"},{"name":"Maximilien","address":"19a rte Ostheim","zipcode":"68340","city":"Zellenberg","chef":"Jean-Michel Eblin","stars":"1"},{"name":"L'Atlantide 1874 - Maison Guého","address":"5 r. de l'Hermitage","zipcode":"44100","city":"Nantes","chef":"Jean-Yves Guého","stars":"1"},{"name":"La Bergerie","address":"D999","zipcode":"63490","city":"Sarpoil","chef":"Cyrille Zen","stars":"1"},{"name":"Les Terraillers","address":"11 Route Chemin-Neuf","zipcode":"06410","city":"Biot","chef":"Michaël Fulci","stars":"1"},{"name":"Relais de la Poste","address":"24 avenue de Maremne","zipcode":"40140","city":"Magescq","chef":"Jean Coussau","stars":"2"},{"name":"Auberge du Vert Mont","address":"1318 r. du Mont-Noir","zipcode":"59299","city":"Boeschepe","chef":"Florent Ladeyn","stars":"1"},{"name":"La Bastide de Moustiers","address":"Parc naturel régional du Verdon, Chemin de Quinson","zipcode":"04360","city":"Moustiers-Sainte-Marie","chef":"Frédéric Garnier","stars":"1"},{"name":"Le Jasmin","address":"Lieu-dit Lalande","zipcode":"47140","city":"Saint-Sylvestre-sur-Lot","chef":"Michel Vico","stars":"1"},{"name":"Serge Vieira","address":"Château du Couffour","zipcode":"15110","city":"Chaudes-Aigues","chef":"","stars":"2"},{"name":"Auberge Le Prieuré","address":"4 Grand'Rue","zipcode":"47310","city":"Moirax","chef":"Benjamin Toursel","stars":"1"},{"name":"Likoké","address":"7 rte de Païolive","zipcode":"07140","city":"Les Vans","chef":"Piet Huysentruyt","stars":"1"},{"name":"Jean-Claude Leclerc","address":"12 rue St-Adjutor","zipcode":"63000","city":"Clermont-Ferrand","chef":"Jean-Claude Leclerc","stars":"1"},{"name":"Relais Louis XIII","address":"8 Rue des Grands Augustins","zipcode":"75006","city":"Paris","chef":"Manuel Martinez","stars":"1"},{"name":"Le Prieuré","address":"r. de la Mairie","zipcode":"42820","city":"Ambierle","chef":"Thierry Fernandes","stars":"1"},{"name":"Le Moulin de la Gorce","address":"D17","zipcode":"87800","city":"La Roche-l'Abeille","chef":"Pierre Bertranet","stars":"1"},{"name":"La Bonne Étape","address":"chemin du lac","zipcode":"04160","city":"Château-Arnoux","chef":"Jany Gleize","stars":"1"},{"name":"Haut Bonheur de la Table","address":"18 Grand-Place","zipcode":"59670","city":"Cassel","chef":"Eugène Hobraiche","stars":"1"},{"name":"Les Fresques","address":"D18","zipcode":"24240","city":"Monestier","chef":"Didier Casaguana","stars":"1"},{"name":"Le Bistrot de Lagarde","address":"rte d'Apt","zipcode":"84400","city":"Lagarde-d'Apt","chef":"Lloyd Tropeano","stars":"1"},{"name":"L'Étang du Moulin","address":"5 chemin de l'Etang du Moulin","zipcode":"25210","city":"Bonnétage","chef":"Jacques Barnachon","stars":"1"},{"name":"La Table Breizh Café","address":"7 quai Thomas","zipcode":"35260","city":"Cancale","chef":"Fumio KUDAKA","stars":"1"},{"name":"Le Parc Les Crayères","address":"64 Boulevard Henry Vasnier","zipcode":"51100","city":"Reims","chef":"PHILIPPE MILLE","stars":"2"},{"name":"Mavrommatis","address":"42 rue Daubenton","zipcode":"75005","city":"Paris 05","chef":"Andréas MAVROMMATIS","stars":"1"},{"name":"Le Georges","address":"22 pl. des Épars","zipcode":"28000","city":"CHARTRES","chef":"Nicolas Mendès","stars":"1"},{"name":"Il Cortile","address":"11 r. des Franciscains","zipcode":"68100","city":"Mulhouse","chef":"Stefano D'Onghia","stars":"1"},{"name":"La Merise","address":"7 r. d'Eschbach","zipcode":"67580","city":"Laubach","chef":"Cédric Deckert","stars":"1"},{"name":"Maison Jeunet","address":"9 r. de l'Hôtel-de-Ville","zipcode":"39600","city":"Arbois","chef":"Steven Naessens","stars":"2"},{"name":"Relais de la Poste","address":"21 rue du Gén. -de-Gaulle","zipcode":"67610","city":"LA-WANTZENAU","chef":"Stephan Bernhard","stars":"1"},{"name":"JAN","address":"12 Rue Lascaris","zipcode":"06000","city":"Nice","chef":"Jan Hendrik van der Westhuizen","stars":"1"},{"name":"Hostellerie Les Gorges de Pennafort","address":"8660 RD 25","zipcode":"83830","city":"Callas","chef":"Philippe Da Silva","stars":"1"},{"name":"Une Table au Sud","address":"2 quai du Port","zipcode":"13002","city":"Marseille","chef":"Ludovic Turac","stars":"1"},{"name":"Le Pavillon des Boulevards","address":"120 r. Croix-de-Seguey","zipcode":"33000","city":"Bordeaux","chef":"Thomas Morel","stars":"1"},{"name":"Guy Savoy","address":"Monnaie de Paris11 Quai de Conti","zipcode":"75006","city":"Paris","chef":"Guy SAVOY","stars":"3"},{"name":"À Contre Sens","address":"8-10 r. des Croisiers","zipcode":"14000","city":"Caen","chef":"Anthony Caillot","stars":"1"},{"name":"Pertica","address":"15 pl. de la République","zipcode":"41100","city":"Vendôme","chef":"Guillaume Foucault","stars":"1"},{"name":"Radio","address":"43 av. P. et M.-Curie","zipcode":"63400","city":"Chamalières","chef":"Wilfrid CHAPLAIN ","stars":"1"},{"name":"Jean Sulpice","address":"303 rte du Port","zipcode":"74290","city":"Talloires","chef":"","stars":"2"},{"name":"Il Carpaccio","address":"37 avenue Hoche","zipcode":"75008","city":"Paris 08","chef":"","stars":"1"},{"name":"Auberge St-Jean","address":"8 r. du Pont","zipcode":"33420","city":"Saint-Jean-de-Blaignac","chef":"Thomas L'Hérisson","stars":"1"},{"name":"Maison Decoret","address":"15 rue du Parc","zipcode":"03200","city":"Vichy","chef":"Jacques Decoret","stars":"1"},{"name":"Hostellerie la Montagne","address":"10 rue Pisseloup","zipcode":"52330","city":"COLOMBEY-LES-DEUX-EGLISES","chef":"Jean-Baptiste Natali","stars":"1"},{"name":"Le Carmin","address":"4B Place Carnot","zipcode":"21200","city":"Beaune","chef":"Christophe Quéant","stars":"1"},{"name":"L'Almandin","address":"Boulevard de l'Almandin","zipcode":"66750","city":"Saint-Cyprien","chef":"Christophe Schmitt","stars":"1"},{"name":"Le Moulin des Quatre Saisons","address":"r. Gallieni","zipcode":"72200","city":"La Flèche","chef":"Camille Constantin","stars":"1"},{"name":"Flaveurs","address":"32 Grande-Rue","zipcode":"26000","city":"Valence","chef":"Baptiste Poinot","stars":"1"},{"name":"Le Petit Hôtel du Grand Large","address":"11 quai St-Ivy","zipcode":"56510","city":"Portivy","chef":"Hervé Bourdon","stars":"1"},{"name":"Faventia","address":"3100 route de Bagnols-en-Forêt","zipcode":"83440","city":"Tourrettes","chef":"Philippe Jourdin","stars":"1"},{"name":"L'Arnsbourg","address":"Untermuhlthal","zipcode":"57230","city":"Baerenthal","chef":"Fabien Mengus","stars":"1"},{"name":"La Table","address":"32 Rue de la Barre","zipcode":"59000","city":"Lille","chef":"Thibaut GAMBA","stars":"1"},{"name":"Guy Lassausaie","address":"r. de Belle-Sise","zipcode":"69380","city":"Chasselay","chef":"","stars":"2"},{"name":"Le Clos des Sens","address":"13 r. J. -Mermoz","zipcode":"74940","city":"Annecy","chef":"Laurent Petit","stars":"2"},{"name":"L'Éveil des Sens","address":"429 bd Paul-Lintier","zipcode":"53100","city":"Mayenne","chef":"Nicolas Nobis","stars":"1"},{"name":"Auberge de la Charme","address":"12 r. de la Charme","zipcode":"21370","city":"Prenois","chef":"Nicolas Isnard et David Le Comte","stars":"1"},{"name":"La Madeleine","address":"1 Rue Alsace-Lorraine","zipcode":"89100","city":"Sens","chef":"Patrick Gauthier","stars":"1"},{"name":"1741","address":"22 Quai des Bateliers","zipcode":"67000","city":"Strasbourg","chef":"Fabien Raux","stars":"1"},{"name":"Le Skiff Club","address":"1 av. Louis-Gaume","zipcode":"33260","city":"La Teste-de-Buch","chef":"","stars":"1"},{"name":"Divellec","address":"18 r. Fabert","zipcode":"75007","city":"Paris","chef":"","stars":"1"},{"name":"Buerehiesel","address":"dans le parc de l'Orangerie","zipcode":"67000","city":"Strasbourg","chef":"Eric Westermann","stars":"1"},{"name":"Domaine de Clairefontaine","address":"chemin des Fontanettes","zipcode":"38121","city":"Chonas-l'Amballan","chef":"Philippe Girardon","stars":"1"},{"name":"Albert 1er","address":"38 rte du Bouchet","zipcode":"74400","city":"Chamonix-Mont-Blanc","chef":"Pierre Maillet","stars":"2"},{"name":"Les Pêcheurs","address":"10 boulevard du Maréchal-Juin","zipcode":"06600","city":"Antibes","chef":"Nicolas RONDELLI","stars":"1"},{"name":"L'Arcane","address":"39 Rue Lamarck","zipcode":"75018","city":"Paris","chef":"Laurent Magnin","stars":"1"},{"name":"Hostellerie du Rosenmeer","address":"45 avenue de la Gare","zipcode":"67560","city":"ROSHEIM","chef":"Hubert Maetz","stars":"1"},{"name":"Le M","address":"22 r. du Cdt-Drogou","zipcode":"29200","city":"Brest","chef":"Philippe Le Bigot","stars":"1"},{"name":"Flocons de Sel","address":"1775 rte du Leutaz","zipcode":"74120","city":"Megève","chef":"Emmanuel Renaut","stars":"3"},{"name":"Auberge Grand'Maison","address":"1 r. Léon-le-Cerf","zipcode":"22530","city":"Mûr-de-Bretagne","chef":"Christophe Le Fur","stars":"1"},{"name":"Septime","address":"80 r. de Charonne","zipcode":"75011","city":"Paris","chef":"Bertrand Grébaut","stars":"1"},{"name":"Le Manoir du Lys","address":"D235","zipcode":"61140","city":"Bagnoles-de-l'Orne","chef":"Franck Quinton","stars":"1"},{"name":"La Côte Saint-Jacques","address":"14 faubourg de Paris","zipcode":"89300","city":"Joigny","chef":"Jean-Michel Lorain","stars":"2"},{"name":"Au 14 Février","address":"36 r. du Bœuf","zipcode":"","city":"Lyon 05","chef":"Tsuyoshi Arai","stars":"1"},{"name":"La Table du 11","address":"8 rue de la chancellerie","zipcode":"78000","city":"Versailles","chef":"Jean-Baptiste Lavergne-Morazzani","stars":"1"},{"name":"Table - Bruno Verjus","address":"3 r. de Prague","zipcode":"75012","city":"Paris","chef":"","stars":"1"},{"name":"Le Passe Temps","address":"52 Rue Tronchet","zipcode":"69006","city":"Lyon","chef":"Younghoon Lee","stars":"1"},{"name":"Château Cordeillan-Bages","address":"Route des châteaux","zipcode":"33250","city":"Pauillac","chef":"Julien Lefebvre","stars":"1"},{"name":"Le Pavé d'Auge","address":"D49","zipcode":"14430","city":"Beuvron-en-Auge","chef":"Jérôme Bansard","stars":"1"},{"name":"Chez Michèle","address":"57 rue Principale","zipcode":"57810","city":"Languimberg","chef":"Bruno Poiré","stars":"1"},{"name":"L'Arôme","address":"3 rue St-Philippe-du-Roule","zipcode":"75008","city":"Paris 08","chef":"BOULLAULT THOMAS","stars":"1"},{"name":"Le Bénaton","address":"25 Rue du Faubourg-Bretonnière","zipcode":"21200","city":"BEAUNE","chef":"Keishi Sugimura","stars":"1"},{"name":"Quai des Saveurs","address":"69 rue de la Gare","zipcode":"57300","city":"Hagondange","chef":"Frédéric Sandrini","stars":"1"},{"name":"La Closerie","address":"bd des Platanes","zipcode":"84240","city":"Ansouis","chef":"Olivier Alemany","stars":"1"},{"name":"L'Auberge de la Pomme","address":"44 rue de l' eure","zipcode":"27340","city":"Les Damps","chef":"William Boquelet","stars":"1"},{"name":"La Rotonde","address":"200 avenue du Casino","zipcode":"69890","city":"LA-TOUR-DE-SALVAGNY","chef":"Jean-François MALLE","stars":"1"},{"name":"Le Cerisier","address":"3 rue de la Gare","zipcode":"62840","city":"LAVENTIE","chef":"Eric Delerue","stars":"1"},{"name":"Les Pyrénées","address":"19 pl. Ch.-de-Gaulle","zipcode":"64220","city":"Saint-Jean-Pied-de-Port","chef":"Philippe Arrambide","stars":"1"},{"name":"Le Hittau","address":"1 rue du Nouaou","zipcode":"40230","city":"SAINT-VINCENT-DE-TYROSSE","chef":"Yannick Duc","stars":"1"},{"name":"Le Jules Verne","address":"2<E>ème</E> étage Tour Eiffel","zipcode":"75007","city":"Paris","chef":"","stars":"1"},{"name":"Le Pressoir","address":"7 r. de l'Hôpital","zipcode":"56890","city":"Saint-Avé","chef":"Vincent David","stars":"1"},{"name":"Auberge St-Walfrid","address":"58 r. de Grosbliederstroff","zipcode":"57200","city":"Sarreguemines","chef":"Stephan Schneider","stars":"1"},{"name":"L'Ambroisie","address":"9 Place des Vosges","zipcode":"75004","city":"Paris","chef":"Bernard Pacaud","stars":"3"},{"name":"Le Candille","address":"bd C. Rebuffel","zipcode":"06250","city":"Mougins","chef":"Xavier Burelle","stars":"1"},{"name":"Têtedoie","address":"4 Rue Professeur Pierre Marion","zipcode":"69005","city":"Lyon 05","chef":"Christian Têtedoie","stars":"1"},{"name":"Skab","address":"7 Rue de la République","zipcode":"30000","city":"nimes","chef":"Alban BARBETTE et Damien SANCHEZ","stars":"1"},{"name":"Le Saint-Estève","address":"2250 route cézanne D17","zipcode":"13100","city":"Le Tholonet","chef":"Mathias Dandine","stars":"1"},{"name":"Le Prince Noir - Vivien Durand","address":"1 rue du Prince Noir","zipcode":"33310","city":"Lormont","chef":"Durand Vivien","stars":"1"},{"name":"Gill","address":"9 quai de la Bourse","zipcode":"76000","city":"Rouen","chef":"Gilles Tournadre","stars":"2"},{"name":"Kasbür","address":"8 Rue de Dettwiller","zipcode":"67700","city":"Monswiller","chef":"Yves Kieffer","stars":"1"},{"name":"Pertinence","address":"29 r. de l'Exposition","zipcode":"75007","city":"Paris","chef":"Kwen Liew et Ryunosuke Naito","stars":"1"},{"name":"La Chaumière","address":"346 av. du Mar. -Juin","zipcode":"39100","city":"Dole","chef":"Joël Césari","stars":"1"},{"name":"Mon Plaisir","address":"22 lieu-dit Journal","zipcode":"25190","city":"Chamesol","chef":"Christian Pilloud","stars":"1"},{"name":"Le Clocher des Pères","address":"D213","zipcode":"73130","city":"Saint-Martin-sur-la-Chambre","chef":"Pierre Troccaz","stars":"1"},{"name":"Le Clarence","address":"31 Avenue Franklin Delano Roosevelt","zipcode":"75008","city":"Paris 08","chef":"Christophe Pelé","stars":"2"},{"name":"Le Cap","address":"71 Boulevard du Général-de-Gaulle","zipcode":"06230","city":"SAINT-JEAN-CAP-FERRAT","chef":"Yoric Tièche","stars":"1"},{"name":"La Chassagnette","address":"route du Sambuc","zipcode":"13200","city":"ARLES","chef":"Armand Arnal","stars":"1"},{"name":"Georges Blanc","address":"pl. du Marché","zipcode":"01540","city":"Vonnas","chef":"Georges BLANC","stars":"3"},{"name":"La Villa Madie","address":"av. du Revestel","zipcode":"13260","city":"Cassis","chef":"Dimitri Droisneau","stars":"2"},{"name":"64° Le Restaurant","address":"9-13 Rue du Général de Gaulle","zipcode":"68240","city":"Kaysersberg","chef":"Olivier Nasti","stars":"2"},{"name":"Montée","address":"9 r. Léopold-Robert","zipcode":"75014","city":"Paris","chef":"Takayuki Nameura","stars":"1"},{"name":"L'Aparté","address":"21 Rue de l’Europe","zipcode":"31850","city":"MONTRABE","chef":"le Chef Jérémy Morin","stars":"1"},{"name":"Jean-Luc Tartarin","address":"Square Saint-Roch","zipcode":"76600","city":"Le Havre","chef":"Jean Luc Tartarin","stars":"2"},{"name":"Auberge du Cellier","address":"1 Rue de Sainte-Eugénie","zipcode":"66720","city":"Montner","chef":"Pierre-Louis Marin","stars":"1"},{"name":"La Grand'Vigne","address":"chemin de Smith-Haut-Lafitte","zipcode":"33650","city":"Martillac","chef":"Nicolas Masse","stars":"2"},{"name":"Château de Courban","address":"7 rue du Lavoir","zipcode":"21520","city":"Courban","chef":"Takashi Kinoshita","stars":"1"},{"name":"La Bonne Auberge","address":"15 r. Nationale","zipcode":"57350","city":"Stiring-Wendel","chef":"Lydia Egloff","stars":"1"},{"name":"Casadelmar","address":"Route de la Plage de Palombaggia","zipcode":"20137","city":"Porto-Vecchio","chef":"Fabio Bragagnolo","stars":"2"},{"name":"Hostellerie Bérard","address":"Avenue Gabriel-Péri","zipcode":"83740","city":"LA-CADIERE-D'AZUR","chef":"Jean-François Bérard","stars":"1"},{"name":"Alléno Paris au Pavillon Ledoyen","address":"8 avenue Dutuit","zipcode":"75008","city":"Paris","chef":"Yannick Alléno","stars":"3"},{"name":"Le Cercle","address":"44 bd Lahitolle","zipcode":"18000","city":"Bourges","chef":"Pascal Chaupitre et Christophe Lot","stars":"1"},{"name":"Gordon Ramsay au Trianon","address":"1 bd de la Reine","zipcode":"78000","city":"Versailles","chef":"","stars":"1"},{"name":"Hervé Busset","address":"D901","zipcode":"12320","city":"Conques","chef":"HERVE BUSSET","stars":"1"},{"name":"Les Trois Rochers","address":"16 rue du Phare","zipcode":"29120","city":"Sainte-Marine","chef":"Fréderic Claquin","stars":"1"},{"name":"Les Terrasses de Lyon","address":"25, montée Saint BArthelémy","zipcode":"69005","city":"Lyon 05","chef":"David Delsart","stars":"1"},{"name":"Carré des Feuillants","address":"14 rue de Castiglione","zipcode":"75001","city":"Paris 01","chef":"Alain Dutournier","stars":"2"},{"name":"La Balette","address":"rte de Port-Vendres","zipcode":"66190","city":"Collioure","chef":"Frederic Bacquie","stars":"1"},{"name":"Nakatani","address":"27 Rue Pierre Leroux","zipcode":"75007","city":"PARIS","chef":"Shinsuke Nakatani","stars":"1"},{"name":"Origine","address":"26 Rampe Cauchoise","zipcode":"76000","city":"Rouen","chef":"Benjamin Lechevallier","stars":"1"},{"name":"Les Bas-Rupts","address":"181 rte de la Bresse","zipcode":"88400","city":"Bas-Rupts","chef":"Michel Philippe","stars":"1"},{"name":"Akrame","address":"7 r. Tronchet","zipcode":"75008","city":"Paris","chef":"Akrame Benallal","stars":"1"},{"name":"Clovis","address":"21 Grand-Rue","zipcode":"06140","city":"Tourrettes-sur-Loup","chef":"Julien Bousseau","stars":"1"},{"name":"Auguste","address":"54 r. Bourgogne","zipcode":"75007","city":"Paris 07","chef":"Gaël Orieux","stars":"1"},{"name":"Ima","address":"20 bd de la Tour-d'Auvergne","zipcode":"35000","city":"Rennes","chef":"Julien Lemarié","stars":"1"},{"name":"L'Ekrin by Laurent Azoulay","address":"Route de la Montée","zipcode":"73550","city":"MERIBEL","chef":"Laurent AZOULAY","stars":"1"},{"name":"Le Chiquito","address":"3 r. de l'Oise, La Bonneville","zipcode":"95540","city":"Méry-sur-Oise","chef":"Alain Mihura","stars":"1"},{"name":"L'Épuisette","address":"158 Vallon-des-Auffes","zipcode":"13007","city":"Marseille","chef":"Guillaume SOURRIEU","stars":"1"},{"name":"Ivan Vautier","address":"3 avenue Henry-Chéron","zipcode":"14000","city":"Caen","chef":"Ivan Vautier","stars":"1"},{"name":"Maison Prévôt","address":"353 av. de Verdun","zipcode":"84300","city":"Cavaillon","chef":"Jean-Jacques Prévôt","stars":"1"},{"name":"Le Relais des Moines","address":"route de Ste-Roseline","zipcode":"83460","city":"Les Arcs","chef":"Sébastien Sanjou","stars":"1"},{"name":"Meurin","address":"Rue de Lillers","zipcode":"62350","city":"Busnes","chef":"Marc Meurin","stars":"2"},{"name":"La Roya","address":"plage de la Roya","zipcode":"20217","city":"Saint-Florent","chef":"","stars":"1"},{"name":"Fontevraud Le Restaurant","address":"38 rue St-Jean-de-l'Habit","zipcode":"49590","city":"FONTEVRAUD-L'ABBAYE","chef":"Thibaut Ruggeri","stars":"1"},{"name":"La Maison dans le Parc","address":"3 r. Ste-Catherine","zipcode":"54000","city":"Nancy","chef":"Françoise Mutel","stars":"1"},{"name":"Jérémy Galvan","address":"Rue du Boeuf","zipcode":"69005","city":"Lyon 05","chef":"","stars":"1"},{"name":"L'Essentiel","address":"8 r. de la Clarté","zipcode":"24000","city":"Périgueux","chef":"Eric Vidal","stars":"1"},{"name":"Pierre Reboul","address":"260 r. Guillaume-du-Vair","zipcode":"13546","city":"Aix-en-Provence","chef":"","stars":"1"},{"name":"Le Grand Cap","address":"chemin du Phare","zipcode":"11370","city":"Leucate","chef":"Erwan Houssin","stars":"1"},{"name":"Laurent","address":"41 av. Gabriel","zipcode":"75008","city":"Paris","chef":"","stars":"1"},{"name":"Le Chateaubriand","address":"129 av. Parmentier","zipcode":"75011","city":"Paris","chef":"Inaki Aizpitarte","stars":"1"},{"name":"L'Esquisse","address":"21 rue Royale","zipcode":"74000","city":"Annecy","chef":"Stéphane Dattrino","stars":"1"},{"name":"Meulien","address":"1 bis av. des Alpes","zipcode":"71700","city":"Tournus","chef":"Valéry Meulien","stars":"1"},{"name":"Villa Archange","address":"Rue de l'Ouest","zipcode":"06110","city":"Le Cannet","chef":"Bruno Oger","stars":"2"},{"name":"Jean Chauvel","address":"33 av. Général-Leclerc","zipcode":"92100","city":"Boulogne-Billancourt","chef":"","stars":"1"},{"name":"Alan Geaam","address":"19 Rue Lauriston","zipcode":"75016","city":"Paris","chef":"Alan Geaam","stars":"1"},{"name":"Lucas Carton","address":"9 pl. de la Madeleine","zipcode":"75008","city":"Paris 08","chef":"Julien Dumas","stars":"1"},{"name":"Le George","address":"31 Avenue George V","zipcode":"75008","city":"Paris","chef":"Simone Zanoni ","stars":"1"},{"name":"Le Gourmet de Sèze","address":"125 Rue de Sèze","zipcode":"69006","city":"Lyon","chef":"Bernard Mariller","stars":"1"},{"name":"Château de la Treyne","address":"","zipcode":"46200","city":"Lacave","chef":"","stars":"1"},{"name":"Pierre Gagnaire","address":"6 Rue Balzac","zipcode":"75008","city":"Paris 08","chef":"Pierre GAGNAIRE","stars":"3"},{"name":"Palm Beach","address":"route des Iles Sanguinaires","zipcode":"20000","city":"Ajaccio","chef":"","stars":"1"},{"name":"Le Vivarais","address":"5 avenue Expilly","zipcode":"07600","city":"VALS-LES-BAINS","chef":"POLLY STEPHANE","stars":"1"},{"name":"La Marine","address":"11 r. de Paris","zipcode":"50270","city":"Barneville-Carteret","chef":"","stars":"1"},{"name":"Le P'tit Polyte","address":"2 Rue de la Chapelle","zipcode":"38860","city":"Les Deux Alpes","chef":"Mathew Hegarty","stars":"1"},{"name":"Dominique Bouchet","address":"11 Rue Treilhard","zipcode":"75008","city":"Paris","chef":"Dominique Bouchet","stars":"1"},{"name":"Cobéa","address":"11 r. Raymond Losserand","zipcode":"75014","city":"Paris 14","chef":"Philippe Bélissent","stars":"1"},{"name":"La Ferme de l'Hospital","address":"rte du golf","zipcode":"74160","city":"Bossey","chef":"Jean-Jacques Noguier","stars":"1"},{"name":"Les Terrasses d'Uriage","address":"pl. Déesse-Hygie","zipcode":"38410","city":"Uriage-les-Bains","chef":"Christophe Aribert","stars":"2"},{"name":"Les Climats","address":"41 rue de Lille","zipcode":"75007","city":"Paris 07","chef":"Julien Boscus","stars":"1"},{"name":"Miraflores","address":"60 r. Garibaldi","zipcode":"69006","city":"Lyon","chef":"Carlos Camino","stars":"1"},{"name":"L'Aquarelle","address":"71 A rte du Montil","zipcode":"17920","city":"Breuillet","chef":"Xavier Taffart","stars":"1"},{"name":"L'Auberge de Bagatelle","address":"489 av. Bollée","zipcode":"72000","city":"Le Mans","chef":"Jean-Sébastien Monné","stars":"1"},{"name":"Château de Sully","address":"D6","zipcode":"14400","city":"Sully","chef":"NIcolas FAGES","stars":"1"},{"name":"Le Bec au Cauchois","address":"22 Rue André Fiquet","zipcode":"76540","city":"Valmont","chef":"Pierre Caillet","stars":"1"},{"name":"Le Raisin","address":"2 pl. M. -Poisat","zipcode":"01190","city":"Pont-de-Vaux","chef":"Frédéric Michel","stars":"1"},{"name":"AM par Alexandre Mazzia","address":"9 rue François Rocca","zipcode":"13008","city":"Marseille","chef":"Alexandre Mazzia","stars":"1"},{"name":"Les Bacchanales","address":"247 avenue de Provence","zipcode":"06140","city":"VENCE","chef":"Christophe Dufau","stars":"1"},{"name":"Brikéténia","address":"142 r. de l'Église","zipcode":"64210","city":"Guéthary","chef":"Martin et David Ibarboure","stars":"1"},{"name":"La Table de la Ferme","address":"Vallée de l'Ortolo","zipcode":"20100","city":"Sartène","chef":"","stars":"1"},{"name":"Le Belvédère","address":"11 rte du Maquis-Jean-Pierre","zipcode":"12340","city":"Bozouls","chef":"Guillaume Viala","stars":"1"},{"name":"Étude","address":"14 r. Bouquet-de-Longchamp","zipcode":"75016","city":"Paris","chef":"Keisuke Yamagishi","stars":"1"},{"name":"La Vague d'Or","address":"Plage de Bouillabaisse","zipcode":"83990","city":"Saint-Tropez","chef":"Arnaud Donckele","stars":"3"},{"name":"Sur Mesure par Thierry Marx","address":"251 Rue Saint Honoré","zipcode":"75001","city":"Paris","chef":"Thierry Marx","stars":"2"},{"name":"Le Domaine du Colombier","address":"270 Chemin de Malombre","zipcode":"26780","city":"Malataverne","chef":"Cyril Fressac","stars":"1"},{"name":"Aux Anges","address":"6 Place Georges Clemenceau","zipcode":"42300","city":"Roanne","chef":"Marco Viganò","stars":"1"},{"name":"Hostellerie de Plaisance","address":"5 place du Clocher","zipcode":"33330","city":"Saint-Emilion","chef":"Ronan Kervarrec","stars":"2"},{"name":"Le Cinq","address":"31 av. George V","zipcode":"75008","city":"Paris 08","chef":"Christian Le Squer","stars":"3"},{"name":"La Scène","address":"33 Avenue George V","zipcode":"75008","city":"Paris","chef":"Stéphanie Le Quellec","stars":"1"},{"name":"Frédéric Simonin","address":"25 rue Bayen","zipcode":"75017","city":"Paris","chef":"FREDERIC SIMONIN","stars":"1"},{"name":"La Table des Merville","address":"3 place Richard","zipcode":"31320","city":"Castanet-Tolosan","chef":"Thierry Merville","stars":"1"},{"name":"Le Musigny","address":"90 Avenue de Liege","zipcode":"59300","city":"Valenciennes","chef":"Emmanuel Hernandez","stars":"1"},{"name":"Lasserre","address":"17 Avenue F. -D. -Roosevelt","zipcode":"75008","city":"Paris 08","chef":"","stars":"1"},{"name":"La Bastide de Capelongue","address":"Chemin des Cabanes","zipcode":"84480","city":"Bonnieux","chef":"Édouard Loubet","stars":"2"},{"name":"Le Favre d'Anne","address":"21 bd du Mar.-Foch","zipcode":"49000","city":"Angers","chef":"Pascal Favre d'Anne","stars":"1"},{"name":"Qui plume la Lune","address":"50 r. Amelot","zipcode":"75011","city":"Paris 11","chef":"Jacky Ribault","stars":"1"},{"name":"La Grenouillère","address":"19 r. de la Grenouillère","zipcode":"62170","city":"La Madelaine-sous-Montreuil","chef":"Alexandre Gauthier","stars":"2"},{"name":"La Table de l'Espadon","address":"15 Place Vendôme","zipcode":"75001","city":"Paris","chef":"Le Chef Nicolas Sale","stars":"2"},{"name":"Shang Palace","address":"10 Avenue d'Iéna","zipcode":"75016","city":"Paris 16","chef":"Samuel Lee","stars":"1"},{"name":"Le Pré - Xavier Beaudiment","address":"3 Route de la Baraque","zipcode":"63830","city":"Durtol","chef":"BEAUDIMENT Xavier","stars":"2"},{"name":"Restaurant de Lauzun","address":"3 bd de l'Esplanade","zipcode":"34150","city":"Gignac","chef":"Matthieu de Lauzun","stars":"1"},{"name":"Elsa","address":"Monte-Carlo Beach - Avenue Princesse Grace","zipcode":"06190","city":"Roquebrune Cap-Martin","chef":"Paolo Sari","stars":"1"},{"name":"Kei","address":"5 rue du Coq-Héron","zipcode":"75001","city":"Paris 01","chef":"Kei Kobayashi","stars":"2"},{"name":"Maison Kieny","address":"7 Rue du Général de Gaulle","zipcode":"68400","city":"Riedisheim","chef":"Jean-Marc KIENY","stars":"1"},{"name":"Restaurant H","address":"13 r. Jean-Beausire","zipcode":"75004","city":"Paris","chef":"Hubert Duchenne","stars":"1"},{"name":"Stéphane Derbord","address":"10 Place du Président Wilson","zipcode":"21000","city":"Dijon","chef":"Stéphane Derbord","stars":"1"},{"name":"Lamartine","address":"Route du Tunnel du Chat","zipcode":"73370","city":"Le Bourget du Lac","chef":"Pierre Marin","stars":"1"},{"name":"Jérôme Nutile - Le Mas de Boudan","address":"351 Chemin du Mas de Boudan","zipcode":"30000","city":"Nîmes","chef":"Jérôme Nutile","stars":"1"},{"name":"La Marine","address":"3 r. Marie-Lemonnier","zipcode":"85330","city":"L'Herbaudière","chef":"Alexandre Couillon","stars":"2"},{"name":"Dyades au Domaine des Étangs","address":"Les Etangs","zipcode":"16310","city":"MASSIGNAC","chef":"","stars":"1"},{"name":"La Grande Maison de Bernard Magrez","address":"10 Rue Labottière","zipcode":"33000","city":"Bordeaux","chef":"Pierre Gagnaire","stars":"2"},{"name":"Au 14 Février","address":"Le Plâtre-Durand","zipcode":"71570","city":"Saint-Amour-Bellevue","chef":"Masafumi Hamano","stars":"2"},{"name":"Le Prieuré","address":"7, place du Chapitre","zipcode":"30400","city":"Villeneuve-lès-Avignon","chef":"Marc Fontanne ","stars":"1"},{"name":"Stéphane Tournié - Les Jardins de l'Opéra","address":"1 place du Capitole","zipcode":"31000","city":"Toulouse","chef":"Stéphane Tournié","stars":"1"},{"name":"Le Haut-Allier","address":"LE PONT D ALLEYRAS","zipcode":"43580","city":"Alleyras","chef":"Philippe Brun","stars":"1"},{"name":"Le Petit Nice","address":"Anse de Maldormé - Corniche J. F. Kennedy","zipcode":"13007","city":"Marseille 07","chef":"Gérald Passédat","stars":"3"},{"name":"Takao Takano","address":"33 Rue Malesherbes","zipcode":"69006","city":"Lyon 06","chef":"Takao Takano","stars":"2"},{"name":"Py-r","address":"19 descente de la Halle-aux-Poissons","zipcode":"31000","city":"Toulouse","chef":"Pierre Lambinon","stars":"1"},{"name":"Hostellerie Jérôme","address":"20 r. Comte de Cessole","zipcode":"06320","city":"La Turbie","chef":"Bruno Cirino","stars":"2"},{"name":"114, Faubourg","address":"114 r. Fg St-Honoré","zipcode":"75008","city":"Paris 08","chef":"Loïc Dantec","stars":"1"},{"name":"Helen","address":"3 r.Berryer","zipcode":"75008","city":"Paris","chef":"Sébastien Carmona Porto","stars":"1"},{"name":"Bruno","address":"2350 route des Arcs, Campagne Mariette","zipcode":"83510","city":"Lorgues","chef":"Benjamin Bruno","stars":"1"},{"name":"1217","address":"le bourg","zipcode":"69620","city":"Bagnols","chef":"Jean-Alexandre OUARATTA","stars":"1"},{"name":"La Palme d'Or","address":"73 Boulevard de la Croisette","zipcode":"06400","city":"Cannes","chef":"Christian Sinicropi","stars":"2"},{"name":"La Grignotière","address":"6 Rue Jean Jaures","zipcode":"59590","city":"Raismes","chef":"Pascal Coulon","stars":"1"},{"name":"La Marande","address":"lieu-dit Mirande","zipcode":"71260","city":"Montbellet","chef":"Philippe Michel","stars":"1"},{"name":"La Table du Gourmet","address":"5 rue 1ère Armée","zipcode":"68340","city":"Riquewihr","chef":"Jean-Luc Brendel","stars":"1"},{"name":"Armani Ristorante","address":"149 Boulevard Saint-Germain","zipcode":"75006","city":"Paris","chef":"Massimo Tringali","stars":"1"},{"name":"Benoit","address":"20 Rue St-Martin","zipcode":"75004","city":"Paris 04","chef":"Fabienne Eymard","stars":"1"},{"name":"Tour d'Argent","address":"15 quai de la Tournelle","zipcode":"75005","city":"Paris","chef":"","stars":"1"},{"name":"L'Abeille","address":"10 Avenue d'Iéna","zipcode":"75016","city":"Paris 16","chef":"Christophe Moret","stars":"2"},{"name":"La Grange de Belle-Église","address":"28 bd René-Aimé-Lagabrielle","zipcode":"60540","city":"Belle-Église","chef":"Marc Duval","stars":"1"},{"name":"Les Trois Dômes","address":"20 quai Gailleton","zipcode":"69002","city":"Lyon","chef":"","stars":"1"},{"name":"Numéro 3","address":"3 rue du Général de Gaulle","zipcode":"78490","city":"Le Tremblay-sur-Mauldre","chef":"Laurent Trochain","stars":"1"},{"name":"Le Carré d'Alethius","address":"4 r. Paul-Bertois","zipcode":"07800","city":"Charmes-sur-Rhône","chef":"Olivier Samin","stars":"1"},{"name":"Auberge St-Laurent","address":"1 rue Fontaine","zipcode":"68510","city":"Sierentz","chef":"Laurent Arbeit","stars":"1"},{"name":"L'O des Vignes","address":"r. du Bourg","zipcode":"71960","city":"Fuissé","chef":"Sébastien Chambru","stars":"1"},{"name":"Le Bouche à Oreille","address":"11 r. de la Chapelle","zipcode":"91150","city":"Boutervilliers","chef":"Aymeric Dreux","stars":"1"},{"name":"Intuition","address":"1 r. Alsace-Lorraine","zipcode":"50000","city":"Saint-Lô","chef":"Mickaël Marion","stars":"1"},{"name":"La Voile","address":"chemin de la Quessine","zipcode":"83350","city":"Ramatuelle","chef":"Eric Canino","stars":"1"},{"name":"Le Moulin d'Alotz","address":"chemin Alotz-Errota","zipcode":"64200","city":"Alotz","chef":"Benoit Sarthou","stars":"1"},{"name":"Aigue Marine","address":"5 r. M. -Berthelot","zipcode":"22220","city":"Tréguier","chef":"LAISNEY Stanislas","stars":"1"},{"name":"Les Cèdres","address":"25 Rue Henri MACHON","zipcode":"26600","city":"Granges-les-Beaumont","chef":"Jacques Bertrand","stars":"2"},{"name":"1912","address":"bd de la Cahotte","zipcode":"14360","city":"Trouville-sur-Mer","chef":"Le chef Johan THYRIOT","stars":"1"},{"name":"Au Vieux Couvent","address":"6 r. des Chanoines","zipcode":"67860","city":"Rhinau","chef":"Alexis Albrecht","stars":"1"},{"name":"Le Gambetta","address":"12 r. Gambetta","zipcode":"49400","city":"Saumur","chef":"Mickael Pihours","stars":"1"},{"name":"Le Champ des Lunes","address":"route de Roquefraîche","zipcode":"84360","city":"Lauris","chef":"Jérôme FAURE","stars":"1"},{"name":"La Lorraine","address":"80 rue Principale","zipcode":"57330","city":"Zoufftgen","chef":"Lucien Keff","stars":"1"},{"name":"Restaurant du Palais Royal","address":"110 Galerie de Valois - Jardin du Palais Royal","zipcode":"75001","city":"Paris 01","chef":"Philip Chronopoulos","stars":"1"},{"name":"Le Pergolèse","address":"40 Rue Pergolèse","zipcode":"75116","city":"Paris","chef":"Stéphane Gaborieau","stars":"1"},{"name":"Ze Kitchen Galerie","address":"4 r. des Grands-Augustins","zipcode":"75006","city":"Paris","chef":"William Ledeuil","stars":"1"},{"name":"Pèir","address":"r. de la Combe","zipcode":"84220","city":"Gordes","chef":"","stars":"1"},{"name":"Le Cloître","address":"Le Cloitre","zipcode":"04300","city":"Mane","chef":"Jerome Roy","stars":"1"},{"name":"La Table de Franck Putelat","address":"80 chemin des Anglais","zipcode":"11000","city":"Carcassonne","chef":"Mr Franck PUTELAT","stars":"2"},{"name":"Le Clair de la Plume","address":"2 Place du Mail","zipcode":"26230","city":"Grignan","chef":"Julien ALLANO, Chef de Cuisine","stars":"1"},{"name":"Ken Kawasaki","address":"15 r. Caulaincourt","zipcode":"75018","city":"Paris","chef":"","stars":"1"},{"name":"Les Genêts","address":"21 bis Rue de l'Océan","zipcode":"85470","city":"Brem-sur-Mer","chef":"Nicolas Coutand","stars":"1"},{"name":"Le Jardin de Benjamin","address":"Route de Salernes","zipcode":"83510","city":"Lorgues","chef":"Benjamin Collombat","stars":"1"},{"name":"Domaine des Séquoias","address":"54 Vie-de-Boussieu","zipcode":"38300","city":"Ruy","chef":"Eric Jambon","stars":"1"},{"name":"Les Explorateurs","address":"place du Slalom","zipcode":"73440","city":"VAL THORENS","chef":"Josselin JEANBLANC","stars":"1"},{"name":"La Pyramide-Patrick Henriroux","address":"14 Boulevard Fernand Point","zipcode":"38200","city":"Vienne","chef":"Patrick Henriroux","stars":"2"},{"name":"La Gloire","address":"74 av. du Gén.-de-Gaulle","zipcode":"45200","city":"Montargis","chef":"Jean-Claude Martin","stars":"1"},{"name":"David Toutain","address":"29 r. Surcouf","zipcode":"75007","city":"Paris","chef":"","stars":"1"},{"name":"Le Pré Catelan","address":"Route de Suresnes","zipcode":"75016","city":"Paris","chef":"Chef Frédéric Anton","stars":"3"},{"name":"Auberge de la Mine","address":"le Gué-Plat","zipcode":"61450","city":"La Ferrière-aux-Étangs","chef":"Hubert Nobis","stars":"1"},{"name":"Auberge au Boeuf","address":"Rue de l'Eglise","zipcode":"67770","city":"Sessenheim","chef":"Yannick Germain","stars":"1"},{"name":"La Table Saint-Crescent","address":"route de Perpignan","zipcode":"11100","city":"Narbonne","chef":"Lionel Giraud","stars":"1"},{"name":"William Frachot","address":"5 rue Michelet","zipcode":"21000","city":"DIJON","chef":"William Frachot","stars":"2"},{"name":"En Marge","address":"1204 route de la Croix-Falgarde","zipcode":"31320","city":"AUREVILLE","chef":"Frank Renimel","stars":"1"},{"name":"Auberge Frankenbourg","address":"13 r. Gén. de Gaulle","zipcode":"67730","city":"La Vancelle","chef":"Sébastien Buecher","stars":"1"},{"name":"Le Moulin du Roc","address":"Avenue Eugène Le Roy","zipcode":"24530","city":"Champagnac-de-Belair","chef":"Alain Gardillou","stars":"1"},{"name":"Auberge du Dun","address":"3 rte de Dieppe","zipcode":"76740","city":"Le Bourg-Dun","chef":"Pierre Chrétien","stars":"1"},{"name":"Le St-Martin","address":"1 r. du Gén.-Leclerc","zipcode":"25200","city":"Montbéliard","chef":"Olivier Prévôt-Carme","stars":"1"},{"name":"La Mare aux Oiseaux","address":"223 RUE DU CHEF DE L'ILE Fedrun","zipcode":"44720","city":"Saint-Joachim","chef":"Eric Guérin","stars":"1"},{"name":"Mariottat","address":"25 r. L.-Vivent","zipcode":"47000","city":"Agen","chef":"Éric Mariottat","stars":"1"},{"name":"SaQuaNa","address":"22 pl. Hamelin","zipcode":"14600","city":"Honfleur","chef":"Alexandre Bourdas","stars":"2"},{"name":"Alexandre","address":"2 rue Xavier Tronc","zipcode":"30128","city":"Garons","chef":"Michel Kayser","stars":"2"},{"name":"L'Auberge des Glazicks","address":"7 rue de la Plage","zipcode":"29550","city":"PLOMODIERN","chef":"Olivier Bellin","stars":"2"},{"name":"La Gourmandière - La Table d'Olivier","address":"D126","zipcode":"56000","city":"Vannes","chef":"Olivier Samson","stars":"1"},{"name":"Épicure","address":"112 r. Fg St-Honoré","zipcode":"75008","city":"Paris 08","chef":"Eric Frechon","stars":"3"},{"name":"Le Clos St-Pierre","address":"pl. de la Mairie","zipcode":"06650","city":"Le Rouret","chef":"Daniel Ettlinger","stars":"1"},{"name":"Lou Cigalon-Maison Martin","address":"6 bd Carnot","zipcode":"06560","city":"Valbonne","chef":"Christophe Martin","stars":"1"},{"name":"Dominique Bucaille","address":"715 av. des Savels","zipcode":"04100","city":"Manosque","chef":"Bucaille Dominique","stars":"1"},{"name":"Le Gindreau","address":"D5","zipcode":"46150","city":"Saint-Médard","chef":"Pascal Bardet","stars":"2"},{"name":"La Licorne Royale","address":"27 Place Isaac Benserade","zipcode":"27480","city":"Lyons-la-Forêt","chef":"Christophe POIRIER","stars":"1"},{"name":"Pur' - Jean-François Rouquette","address":"5 r. de la Paix","zipcode":"75002","city":"Paris 02","chef":"ROUQUETTE Jean-François","stars":"1"},{"name":"La Petite Maison de Cucuron","address":"pl. de l'Étang","zipcode":"84160","city":"Cucuron","chef":"Eric Sapet","stars":"1"},{"name":"Le Moulin de l'Abbaye","address":"1 avenue Pierre de Bourdeilles","zipcode":"24310","city":"BRANTOME","chef":"LECOIN LOIC","stars":"1"},{"name":"Le Saint-James","address":"3 pl. Camille-Hostein","zipcode":"33270","city":"BOULIAC","chef":"Nicolas Magie","stars":"1"},{"name":"Le Mas du Langoustier","address":"","zipcode":"83400","city":"Hyères","chef":"","stars":"1"},{"name":"La Dame de Pic","address":"20 Rue du Louvre","zipcode":"75001","city":"Paris 01","chef":"Anne-Sophie Pic","stars":"1"},{"name":"L'Essentiel","address":"29 Rue Mirabeau","zipcode":"14800","city":"DEAUVILLE","chef":"Mi-Ra et Charles Thuillant","stars":"1"},{"name":"Les Prés d'Eugénie - Michel Guérard","address":"pl. de l'Impératrice","zipcode":"40320","city":"Eugénie-les-Bains","chef":"Michel Guérard","stars":"3"},{"name":"Auberge des Saints Pères","address":"212 av. de Nonneville","zipcode":"93600","city":"Aulnay-sous-Bois","chef":"Jean-Claude Cahagnet","stars":"1"},{"name":"Les Hautes Roches","address":"86 quai de Loire","zipcode":"37210","city":"Rochecorbon","chef":"Didier Edon","stars":"1"},{"name":"Étincelles - La Gentilhommière","address":"","zipcode":"24440","city":"Sainte-Sabine","chef":"Vincent Lucas","stars":"1"},{"name":"Les Tablettes de Jean-Louis Nomicos","address":"16 Avenue Bugeaud","zipcode":"75016","city":"Paris","chef":"Jean-Louis Nomicos","stars":"1"},{"name":"Château du Mont Joly","address":"6 r. du Mont-Joly","zipcode":"39100","city":"Sampans","chef":"Romuald Fassenet","stars":"1"},{"name":"Loiseau des Vignes","address":"31 Rue Jean Francois Maufoux","zipcode":"21200","city":"Beaune","chef":"Haddouche Mourad","stars":"1"},{"name":"Le Puits St-Jacques","address":"av. Victor-Capoul","zipcode":"32600","city":"Pujaudran","chef":"Bernard Bach","stars":"2"},{"name":"Le Pot d'Étain","address":"4 av. de la République","zipcode":"90400","city":"Danjoutin","chef":"Philippe Zeiger","stars":"1"},{"name":"L'Amphitryon","address":"chemin de Gramont","zipcode":"31770","city":"Colomiers","chef":"Yannick Delpech","stars":"1"},{"name":"Le Colombier","address":"r. Loucheur","zipcode":"76550","city":"Offranville","chef":"Laurent Kleczewski","stars":"1"},{"name":"L'Atelier de Joël Robuchon - Étoile","address":"133 av. des Champs-Élysées","zipcode":"75008","city":"Paris","chef":"","stars":"1"},{"name":"Roscanvec","address":"17 r. des Halles","zipcode":"56000","city":"Vannes","chef":"Thierry Seychelles","stars":"1"},{"name":"Avel Vor","address":"25 r. de Locmalo","zipcode":"56290","city":"Port-Louis","chef":"Patrice Gahinet","stars":"1"},{"name":"Aux Terrasses","address":"18 av. du 23-Janvier","zipcode":"71700","city":"Tournus","chef":"Jean-Michel Carrette","stars":"1"},{"name":"L'Auberge Basque","address":"quartier Helbarron","zipcode":"64310","city":"Saint-Pée-sur-Nivelle","chef":"Cédric Béchade","stars":"1"},{"name":"Terre-Mer","address":"16 r. du Jeu-de-Paume","zipcode":"56400","city":"Auray","chef":"Anthony Jéhanno","stars":"1"},{"name":"Les Voiles d'Or","address":"2 chemin de la Falaise","zipcode":"76200","city":"Dieppe","chef":"Tristan Arhan","stars":"1"},{"name":"Assa","address":"189 Quai Ulysse Besnard","zipcode":"41000","city":"Blois","chef":"Fumiko et Anthony Maubert","stars":"1"},{"name":"Le Saint-Martin","address":"Avenue des Templiers","zipcode":"06140","city":"Vence","chef":"Jean-Luc Lefrançois","stars":"1"},{"name":"La Réserve Rimbaud","address":"820 Avenue de Saint-Maur","zipcode":"34000","city":"Montpellier","chef":"Charles Fontes","stars":"1"},{"name":"Auberge de l'Abbaye","address":"47 place des anciens Combattants","zipcode":"01500","city":"Ambronay","chef":"Ivan Lavaux","stars":"1"},{"name":"Le Jardin des Remparts","address":"10 rue Hôtel-Dieu","zipcode":"21200","city":"Beaune","chef":"Christophe Bocquillon","stars":"1"},{"name":"Le Kaïku","address":"17 r. de la République","zipcode":"64500","city":"Saint-Jean-de-Luz","chef":"Nicolas Borombo","stars":"1"},{"name":"Julien Binz","address":"7 Rue des Cigognes","zipcode":"68770","city":"Ammerschwihr","chef":"Le Chef Julien Binz","stars":"1"},{"name":"L'Amphitryon","address":"127 r. du Col. -Müller","zipcode":"56100","city":"Lorient","chef":"Olivier Beurné","stars":"1"},{"name":"Frédéric Doucet","address":"2 avenue de la Libération","zipcode":"71120","city":"Charolles","chef":"Frédéric Doucet","stars":"1"},{"name":"Baumanière 1850","address":"rte de Bellecôte","zipcode":"73120","city":"Courchevel 1850","chef":"","stars":"1"},{"name":"Le Patio","address":"10 bd de la Plage","zipcode":"33120","city":"Arcachon","chef":"Thierry Renou","stars":"1"},{"name":"Maison Rostang","address":"20 rue Rennequin","zipcode":"75017","city":"Paris","chef":"Nicolas Beaumann","stars":"2"},{"name":"Hostellerie de Levernois","address":"15 r. du Golf","zipcode":"21200","city":"Levernois","chef":"","stars":"1"},{"name":"La Table d'Eugène","address":"18 r. Eugène-Sue","zipcode":"75018","city":"Paris","chef":"Geoffroy Maillard","stars":"1"},{"name":"La Nouvelle Auberge","address":"9 route Nationale","zipcode":"68230","city":"Wihr-au-Val","chef":"Bernard Leray","stars":"1"},{"name":"Racine","address":"6 pl. Godinot","zipcode":"51100","city":"Reims","chef":"Kazuyuki Tanaka","stars":"1"},{"name":"Le Violon d'Ingres","address":"135 Rue Saint-Dominique","zipcode":"75007","city":"Paris","chef":"Christian Constant","stars":"1"},{"name":"Le Lièvre Gourmand","address":"28 quai du Châtelet","zipcode":"45000","city":"Orléans","chef":"Tristan Robreau","stars":"1"},{"name":"La Galinette","address":"23 r. Jean Payra","zipcode":"66000","city":"Perpignan","chef":"Christophe Comes","stars":"1"},{"name":"La Table de Chaintré","address":"72 pl. du Luminaire","zipcode":"71570","city":"Chaintré","chef":"Sébastien Grospellier","stars":"1"},{"name":"La Maison des Bois - Marc Veyrat","address":"Chemin Rural de Manigod au Col de la Croix Fry","zipcode":"74230","city":"Manigod","chef":"Marc Veyrat","stars":"3"},{"name":"Paloma","address":"47 Avenue du Moulin de la Croix","zipcode":"06250","city":"Mougins","chef":"Nicolas DECHERCHI","stars":"2"},{"name":"Agapé","address":"51 Rue Jouffroy-d'Abbans","zipcode":"75017","city":"Paris 17","chef":"Yoshitaka Takayanagi","stars":"1"},{"name":"Le Roc Alto","address":"Quartier La Ville","zipcode":"05350","city":"SAINT-VERAN","chef":"Alexandre Lechêne","stars":"1"},{"name":"Auberge de Clochemerle","address":"Rue Gabriel-Chevallier","zipcode":"69460","city":"VAUX-EN-BEAUJOLAIS","chef":"Romain Barthe","stars":"1"},{"name":"Le Beaulieu","address":"34 Bis Place République","zipcode":"72000","city":"Le Mans","chef":"Olivier Boussard","stars":"1"},{"name":"Les Tablettes de Jean-Louis Nomicos","address":"16 Avenue Bugeaud","zipcode":"75016","city":"Paris","chef":"Jean-Louis Nomicos","stars":"1"},{"name":"Saturne","address":"17 r. N.-D.-des-Victoires","zipcode":"75002","city":"Paris","chef":"Sven Chartier","stars":"1"},{"name":"La Marelle","address":"1593 av. de Lyon","zipcode":"01960","city":"PERONNAS","chef":"Didier Goiffon","stars":"1"},{"name":"Yam'Tcha","address":"121 r. St-Honoré","zipcode":"75001","city":"Paris","chef":"Adeline Grattard","stars":"1"},{"name":"Le Marcq","address":"944 av. de la République","zipcode":"59700","city":"Marcq-en-Barœul","chef":"Abdelkader Belfatmi","stars":"1"},{"name":"Transparence \"La Table de Patrick Fréchin\"","address":"28 r. Stanislas","zipcode":"54000","city":"Nancy","chef":"","stars":"1"},{"name":"L'Orangerie","address":"31 Avenue George-V","zipcode":"75008","city":"Paris","chef":"David Bizet ","stars":"1"},{"name":"Grand Hôtel du Lion d'Or","address":"69 r. Clemenceau","zipcode":"41200","city":"Romorantin-Lanthenay","chef":"Didier Clément","stars":"1"},{"name":"Auberge du Cheval Blanc","address":"4 Route de Wissembourg","zipcode":"67510","city":"Lembach","chef":"Pascal Bastian","stars":"2"},{"name":"Rodolphe","address":"35 r. Percière","zipcode":"76000","city":"Rouen","chef":"Rodolphe Pottier","stars":"1"},{"name":"Anne de Bretagne","address":"163, Boulevard de la Tara","zipcode":"44770","city":"La Plaine-sur-Mer","chef":"Mathieu Guibert","stars":"2"},{"name":"Ar Men Du","address":"47 rue des îles","zipcode":"29920","city":"Névez","chef":"Philippe Emanuelli","stars":"1"},{"name":"Le Foch","address":"37 bd Foch","zipcode":"51100","city":"Reims","chef":"Jacky Louazé","stars":"1"},{"name":"Le Gabriel","address":"42 Avenue Gabriel","zipcode":"75008","city":"Paris","chef":"Jérôme Banctel","stars":"2"},{"name":"La Scène Thélème","address":"18 Rue Troyon","zipcode":"75017","city":"PARIS","chef":"Julien Roucheteau","stars":"1"},{"name":"La Table d'Uzès","address":"18 rue du Docteur Blanchard","zipcode":"30700","city":"Uzès","chef":"","stars":"1"},{"name":"La Table de Manville","address":"Domaine de Manville - D27","zipcode":"13520","city":"LES-BAUX-DE-PROVENCE","chef":"Matthieu Dupuis-Baumal","stars":"1"},{"name":"L'Aubergade","address":"78 rte Nationale","zipcode":"80480","city":"Dury","chef":"Eric Boutté","stars":"1"},{"name":"La Matelote","address":"80 Boulevard Ste Beuve","zipcode":"62200","city":"BOULOGNE-SUR-MER","chef":"Tony Lestienne","stars":"1"},{"name":"Assiette Champenoise","address":"40 av. Paul Vaillant-Couturier","zipcode":"51430","city":"Tinqueux","chef":"Arnaud Lallement","stars":"3"},{"name":"Hostellerie de l'Abbaye de la Celle","address":"10 Place Général de Gaulle","zipcode":"83170","city":"La Celle","chef":"Nicolas Pierantoni","stars":"1"},{"name":"Auberge de l'Île Barbe","address":"1 Place Notre-Dame","zipcode":"69009","city":"Lyon 09","chef":"Jean-Christophe Ansanay-Alex","stars":"1"},{"name":"Gavroche","address":"4 r. Klein","zipcode":"67000","city":"Strasbourg","chef":"Benoit Fuchs","stars":"1"},{"name":"Le 39V","address":"39 Avenue George V","zipcode":"75008","city":"Paris 08","chef":"Frédéric Vardon","stars":"1"},{"name":"Auberge Tiegezh","address":"7 Place de la Gare","zipcode":"56380","city":"Guer","chef":"Baptiste Denieul","stars":"1"},{"name":"Le Magasin aux Vivres","address":"5 Avenue Ney","zipcode":"57000","city":"Metz","chef":"Christophe Dufossé","stars":"1"},{"name":"Auberge du Pont d'Acigné","address":"D392","zipcode":"35530","city":"Noyal-sur-Vilaine","chef":"Sylvain Guillemot","stars":"1"},{"name":"Le Grand Cerf","address":"50 rte Nationale","zipcode":"51500","city":"Montchenot","chef":"Dominique Giraudeau et Pascal Champion","stars":"1"},{"name":"U Santa Marina","address":"Marina di Santa Giulia","zipcode":"20137","city":"Porto-Vecchio","chef":"","stars":"1"},{"name":"La Table d'Olivier","address":"3 r. St-Ambroise","zipcode":"19100","city":"Brive-la-Gaillarde","chef":"Pierre Neveu","stars":"1"},{"name":"Le Restaurant","address":"13 rue des Beaux-Arts","zipcode":"75006","city":"Paris 06","chef":"Julien Montbabut","stars":"1"},{"name":"Mère Brazier","address":"12 rue Royale","zipcode":"69001","city":"LYON","chef":"Mathieu Viannay","stars":"2"},{"name":"Le Puits du Trésor","address":"21 rte des Quatre-Châteaux","zipcode":"11600","city":"Lastours","chef":"Jean-Marc Boyer","stars":"1"},{"name":"Auberge La Pomme d'Api","address":"49 r. Verderel","zipcode":"29250","city":"Saint-Pol-de-Léon","chef":"Jérémie Le Calvez","stars":"1"},{"name":"Au Déjeuner de Sousceyrac","address":"r. Pierre-Benoit","zipcode":"46190","city":"Sousceyrac","chef":"Patrick Lagnès","stars":"1"},{"name":"L'Atelier de Jean-Luc Rabanel","address":"7 r. des Carmes","zipcode":"13200","city":"Arles","chef":"Jean-Luc Rabanel","stars":"2"},{"name":"Le Grand Restaurant - Jean-François Piège","address":"7 r. d'Aguesseau","zipcode":"75008","city":"Paris","chef":"","stars":"2"},{"name":"Le Quincangrogne","address":"7 Rue de l'Abreuvoir","zipcode":"77400","city":"Dampmart","chef":"Franck Charpentier","stars":"1"},{"name":"Le Jardin des Plumes","address":"1 Rue du Milieu","zipcode":"27620","city":"Giverny","chef":"Albert Riera pour Eric Guerin","stars":"1"},{"name":"Copenhague","address":"142 AVENUE DES CHAMPS ELYSEES","zipcode":"75008","city":"PARIS","chef":"Andreas Møller","stars":"1"},{"name":"Paul Bocuse","address":"40 Quai de la Plage","zipcode":"69660","city":"Collonges-au-Mont-d'Or","chef":"Paul BOCUSE","stars":"3"},{"name":"Umami","address":"8 r. des Dentelles","zipcode":"67000","city":"Strasbourg","chef":"René Fieger","stars":"1"},{"name":"La Gouesnière","address":"1 Le Limonay","zipcode":"35350","city":"Saint-Méloir-des-Ondes","chef":"Valade Olivier","stars":"1"},{"name":"Le Bon Accueil","address":"32 Grande-Rue","zipcode":"25160","city":"Malbuisson","chef":"Marc Faivre","stars":"1"},{"name":"Le Carrousel","address":"14 rue du Pont de Morge","zipcode":"63350","city":"MARINGUES","chef":"Olivier Said","stars":"1"},{"name":"La Table de l'Alpaga","address":"66 Allée des Marmousets","zipcode":"74120","city":"Megève","chef":"Anthony Bisquerra","stars":"1"},{"name":"Aux Pesked","address":"59 Rue du Légué","zipcode":"22000","city":"Saint-Brieuc","chef":"Mathieu Aumont","stars":"1"},{"name":"Manoir de la Boulaie","address":"33 rue Chapelle St-Martin","zipcode":"44115","city":"HAUTE-GOULAINE","chef":"Laurent Saudeau","stars":"2"},{"name":"Ed.Em","address":"4 imp. Chenevottes","zipcode":"21190","city":"Chassagne-Montrachet","chef":"Edouard Mignot","stars":"1"},{"name":"Thierry Drapeau","address":"La Chabotterie","zipcode":"85260","city":"Saint-Sulpice-le-Verdon","chef":"THIERRY DRAPEAU","stars":"2"},{"name":"Le Bois sans Feuilles","address":"728 Route de Villerest","zipcode":"42155","city":"Ouches","chef":"Michel et César Troisgros","stars":"3"},{"name":"Le Strasbourg","address":"24 r. du Col. -Teyssier","zipcode":"57230","city":"Bitche","chef":"Lutz Janisch","stars":"1"},{"name":"Le Cerf","address":"30 r. du Gén.-de-Gaulle","zipcode":"67520","city":"Marlenheim","chef":"Michel Husser et Joël Philipps","stars":"1"},{"name":"Le Saison","address":"1 imp. du Vieux-Bourg","zipcode":"35760","city":"Saint-Grégoire","chef":"David Etcheverry","stars":"1"},{"name":"La Maison d'à Côté","address":"17 rue de Chambord","zipcode":"41350","city":"Montlivault","chef":"Christophe Hay","stars":"1"},{"name":"Le Taillevent","address":"15 Rue Lamennais","zipcode":"75008","city":"Paris","chef":"Alain Solivérès","stars":"2"},{"name":"Château de Mercuès","address":"Route du Château","zipcode":"46090","city":"Mercuès","chef":"Julien Poisot","stars":"1"},{"name":"La Tour des Vents","address":"Le Moulin de Malfourat","zipcode":"24240","city":"Monbazillac","chef":"Damien Fagette","stars":"1"},{"name":"Quinsou","address":"33 r. de l'Abbé-Grégoire","zipcode":"75006","city":"Paris","chef":"Antonin Bonnet","stars":"1"},{"name":"Alain Ducasse au Plaza Athénée","address":"25 avenue Montaigne","zipcode":"75008","city":"Paris","chef":"","stars":"3"},{"name":"Domaine de Rochevilaine","address":"à la Pointe de Pen Lan","zipcode":"56190","city":"Billiers","chef":"Maxime Nouail","stars":"1"},{"name":"La Table de La Butte","address":"10 rue de la Mer","zipcode":"29260","city":"PLOUIDER","chef":"Nicolas Conraux","stars":"1"},{"name":"Auberge des Templiers","address":"D2007","zipcode":"45290","city":"Les Bézards","chef":"Yoshihiko MIURA","stars":"1"},{"name":"Christopher Coutanceau","address":"Promenade de la Concurrence","zipcode":"17000","city":"La Rochelle","chef":"CHRISTOPHER COUTANCEAU","stars":"2"},{"name":"Xavier Mathieu","address":"Route de Murs","zipcode":"84220","city":"Joucas","chef":"Mr Xavier Mathieu","stars":"1"},{"name":"Le 1947","address":"Cheval Blanc Courchevel - Le Jardin Alpin","zipcode":"73120","city":"Courchevel 1850","chef":"Yannick Alléno","stars":"3"},{"name":"Le Quinzième - Cyril Lignac","address":"14 rue Cauchy","zipcode":"75015","city":"Paris","chef":"Cyril Lignac","stars":"1"},{"name":"Le Pré du Moulin","address":"rte de Ste-Cécile-les-Vignes","zipcode":"84830","city":"Sérignan-du-Comtat","chef":"Caroline et Pascal Alonso","stars":"1"},{"name":"L'Odas","address":"Passage Maurice Lenfant","zipcode":"76000","city":"Rouen","chef":"Olivier Da Silva","stars":"1"},{"name":"L'Émulsion","address":"57 rte de Lyon","zipcode":"38080","city":"Saint-Alban-de-Roche","chef":"Romain Hubert","stars":"1"},{"name":"La Table by La Villa","address":"chemin de Notre-Dame-de-la-Serra","zipcode":"20260","city":"Calvi","chef":"","stars":"1"},{"name":"Maison Lameloise","address":"36 pl. d'Armes","zipcode":"71150","city":"Chagny","chef":"Eric Pras","stars":"3"},{"name":"Le Vieux Logis","address":"Le Bourg","zipcode":"24510","city":"Trémolat","chef":"ARNOULD Vincent","stars":"1"},{"name":"Les Chênes Verts","address":"rte de Villecroze","zipcode":"83690","city":"Tourtour","chef":"","stars":"1"},{"name":"Au Crocodile","address":"10 rue de L'Outre","zipcode":"67000","city":"STRASBOURG","chef":"Franck Pelux","stars":"1"},{"name":"Domaine des Hauts de Loire","address":"79 rue Gilbert Navard","zipcode":"41150","city":"Onzain","chef":"Rémy Giraud","stars":"2"},{"name":"Neige d'Été","address":"12 Rue de l'Amiral Roussin","zipcode":"75015","city":"Paris 15","chef":"Hideki Nishi","stars":"1"},{"name":"Le Belrose","address":"Boulevard des Crêtes","zipcode":"83580","city":"Gassin","chef":"Pietro Volonté","stars":"1"},{"name":"La Cachette","address":"Rue des Cévennes","zipcode":"26000","city":"Valence","chef":"Masashi Ijichi","stars":"1"},{"name":"Maison Crouzil et Hôtel L'Écrin","address":"20 les Quais","zipcode":"22130","city":"Plancoët","chef":"","stars":"1"},{"name":"Le Chantecler","address":"37 Promenade des Anglais","zipcode":"06000","city":"NICE","chef":"Jean-Denis Rieubland","stars":"2"},{"name":"Le Vivier","address":"800 cours F. Peyre (rte de Carpentras)","zipcode":"84800","city":"L'Isle-sur-la-Sorgue","chef":"ROMAIN GANDOLPHE","stars":"1"},{"name":"Penati al Baretto","address":"9 rue Balzac","zipcode":"75008","city":"Paris 08","chef":"Alberico Penati","stars":"1"},{"name":"Le Camélia","address":"7 quai Georges Clemenceau","zipcode":"78380","city":"Bougival","chef":"Thierry Conte","stars":"1"},{"name":"Hélène Darroze","address":"4 rue d'Assas","zipcode":"75006","city":"Paris 06","chef":"Hélène Darroze","stars":"1"},{"name":"SEPT","address":"7 pl. St-Sernin","zipcode":"31000","city":"Toulouse","chef":"Guillaume Momboisse","stars":"1"},{"name":"L'Axel","address":"43 r. de France","zipcode":"77300","city":"Fontainebleau","chef":"Kunihisa Goto","stars":"1"},{"name":"Les Fresques","address":"13 Avenue des Mateirons","zipcode":"74500","city":"Évian-les-Bains","chef":"Patrice Vander","stars":"1"},{"name":"Jérôme Brochot","address":"Place Beaubernard","zipcode":"71300","city":"Montceau-les-Mines","chef":"Jérôme Brochot","stars":"1"},{"name":"L'Hysope","address":"25 r. de l'Aurore","zipcode":"17220","city":"La Jarrie","chef":"","stars":"1"},{"name":"Garopapilles","address":"62 r. Abbé-de-L'Epée","zipcode":"33000","city":"Bordeaux","chef":"Tanguy Laviale","stars":"1"},{"name":"Initial","address":"24 Rue Saint-Manvieu","zipcode":"14000","city":"Caen","chef":"Yohann Lemonnier","stars":"1"},{"name":"Auberge du Paradis","address":"Le Plâtre-Durand","zipcode":"71570","city":"Saint-Amour-Bellevue","chef":"Cyril Laugier","stars":"1"},{"name":"1131","address":"D 33","zipcode":"21360","city":"La Bussière-sur-Ouche","chef":"Royer Guillaume","stars":"1"},{"name":"Christophe Bacquié","address":"Hotel du Castellet Route des Hauts du Camp","zipcode":"83330","city":"Le Castellet","chef":"Christophe Bacquié","stars":"3"},{"name":"Le Chiberta","address":"3 Rue Arsène Houssaye","zipcode":"75008","city":"Paris 08","chef":"Stéphane Laruelle","stars":"1"},{"name":"La Promenade","address":"11 rue du Savoureulx","zipcode":"37350","city":"Le Petit-Pressigny","chef":"Fabrice et Jacky Dallais","stars":"1"},{"name":"Le France","address":"8 place Cupillard","zipcode":"25130","city":"VILLERS-LE-LAC","chef":"Hugues Droz","stars":"1"},{"name":"Le Corot","address":"55 Rue de Versailles","zipcode":"92410","city":"VILLE-D'AVRAY","chef":"Rémi Chambard","stars":"1"},{"name":"Michel Trama","address":"52 r. Royale","zipcode":"47270","city":"Puymirol","chef":"","stars":"2"},{"name":"Girardin","address":"19 Rue des Têtes","zipcode":"68000","city":"Colmar","chef":"Éric Girardin","stars":"1"},{"name":"Auberge de la Tour","address":"Place de la Fontaine","zipcode":"15220","city":"MARCOLES","chef":"Renaud Darmanin","stars":"1"},{"name":"Le Lido","address":"42 av. Napoléon-III","zipcode":"20110","city":"Propriano","chef":"Romuald ROYER","stars":"1"},{"name":"Le Domaine de la Corniche","address":"5 rte de la Corniche","zipcode":"78270","city":"Rolleboise","chef":"Julien Razemon","stars":"1"},{"name":"Ithurria","address":"pl. du Fronton","zipcode":"64250","city":"Ainhoa","chef":"Xavier Isabal","stars":"1"},{"name":"Au Trou Gascon","address":"40 rue Taine","zipcode":"75012","city":"Paris","chef":"Hugo MARTIN","stars":"1"},{"name":"Château de Pray","address":"Rue du Cèdre","zipcode":"37400","city":"Amboise","chef":"Arnaud Philippon","stars":"1"},{"name":"L'Orée de la Forêt","address":"255 r. de la Forêt","zipcode":"60600","city":"Étouy","chef":"Nicolas Leclercq","stars":"1"},{"name":"Atmosphères","address":"618 Route des Tournelles","zipcode":"73370","city":"Le Bourget-du-Lac","chef":"Alain Périllat-Mercerot","stars":"1"},{"name":"Château d'Adoménil","address":"","zipcode":"54300","city":"Lunéville","chef":"Cyril Leclerc","stars":"1"},{"name":"Les Berceaux","address":"13 rue des Berceaux","zipcode":"51200","city":"Épernay","chef":"Patrick Michelon","stars":"1"},{"name":"Palégrié","address":"Les Ritons","zipcode":"38250","city":"Corrençon-en-Vercors","chef":"","stars":"1"},{"name":"Le Meurice Alain Ducasse","address":"228 Rue de Rivoli","zipcode":"75001","city":"Paris","chef":"Alain Ducasse et Jocelyn Herland","stars":"2"},{"name":"La Chèvre d'Or","address":"r. du Barri","zipcode":"06360","city":"Èze","chef":"Arnaud Faye, Chef Exécutif et Julien Dugourd, Chef Pâtissier","stars":"2"},{"name":"La Table de la Bergerie","address":"La Bergerie","zipcode":"49380","city":"Champ-sur-Layon","chef":"David Guitton","stars":"1"},{"name":"Le Village","address":"3 Grande-Rue","zipcode":"78160","city":"Marly-le-Roi","chef":"Tomohiro Uido","stars":"1"},{"name":"Le Brittany","address":"bd Ste-Barbe","zipcode":"29681","city":"Roscoff","chef":"Loic Le Bail","stars":"1"},{"name":"La Promenade","address":"2 promenade Jean-Jaurès","zipcode":"31590","city":"Verfeil","chef":"Nicolas Thomas","stars":"1"},{"name":"Table des Frères Ibarboure","address":"chemin Ttalienea","zipcode":"64210","city":"Bidart","chef":"Xabi et Patrice Ibarboure","stars":"1"},{"name":"Entre Vigne et Garrigue","address":"600 route de Saint Bruno","zipcode":"30131","city":"Pujaut","chef":"Serge et Maxime Chenet","stars":"1"},{"name":"Les Morainières","address":"route de Marétel","zipcode":"73170","city":"Jongieux","chef":"Michaël Arnoult","stars":"2"},{"name":"L'Atelier de Joël Robuchon - St-Germain","address":"5 r. de Montalembert","zipcode":"75007","city":"Paris","chef":"","stars":"2"},{"name":"L'Atelier de Gaztelur","address":"Chemin de Gastelhur","zipcode":"64200","city":"Arcangues","chef":"Alexandre Bousquet","stars":"1"},{"name":"La Robe","address":"3 pl. Reveillère-Lepeaux","zipcode":"85600","city":"Montaigu","chef":"Xavier Giraudet","stars":"1"},{"name":"JY'S","address":"17 r. de la Poissonnerie","zipcode":"68000","city":"Colmar","chef":"Jean-Yves Schillinger","stars":"2"},{"name":"Auberge de l'Ill","address":"2 rue de Collonges-au-Mont d'Or","zipcode":"68970","city":"Illhaeusern","chef":"Marc Haeberlin","stars":"3"},{"name":"Le Castellaras","address":"461 chemin Peymeyan","zipcode":"83440","city":"Fayence","chef":"Quentin Joplet","stars":"1"},{"name":"Aida","address":"1 r. Pierre Leroux","zipcode":"75007","city":"Paris 07","chef":"Koji Aida","stars":"1"},{"name":"Château de Codignat","address":"Bort l'Etang","zipcode":"63190","city":"Bort-l'Étang","chef":"Barbet Matthieu","stars":"1"},{"name":"Le Chabichou","address":"90 Route des Chenus","zipcode":"73120","city":"Courchevel 1850","chef":"Michel Rochedy et Stéphane Buron","stars":"2"},{"name":"Flaveur","address":"25 Rue Gubernatis","zipcode":"06000","city":"Nice","chef":"Gaël et Mickaël Tourteaux","stars":"2"},{"name":"Passage 53","address":"53 passage des Panoramas","zipcode":"75002","city":"Paris","chef":"Shinichi Sato","stars":"2"},{"name":"Régis et Jacques Marcon","address":"Larsiallas","zipcode":"43290","city":"SAINT-BONNET-LE-FROID","chef":"Régis et  Jacques Marcon","stars":"3"},{"name":"Mickaël Féval","address":"11 Petite-Rue-St-Jean","zipcode":"13100","city":"Aix-en-Provence","chef":"","stars":"1"},{"name":"Le Kléber","address":"6 r. A. -Dumont","zipcode":"26400","city":"Crest","chef":"Sébastien Bonnet","stars":"1"},{"name":"Le St-Placide","address":"6 place du poncel","zipcode":"35400","city":"Saint-Malo","chef":"Luc Mobihan","stars":"1"},{"name":"Logis de la Cadène","address":"Place du Marche au Bois","zipcode":"33330","city":"Saint Emilion","chef":"Alexandre Baumard","stars":"1"},{"name":"St-James Paris","address":"43 av. Bugeaud","zipcode":"75116","city":"Paris","chef":"","stars":"1"},{"name":"L'Olivier","address":"25 Route des Carles","zipcode":"83990","city":"Saint-Tropez","chef":"COLINET PHILIPPE","stars":"1"},{"name":"Chapelle Saint-Martin","address":"33, Saint Martin du Fault","zipcode":"87510","city":"Nieul","chef":"Gilles Dudognon","stars":"1"},{"name":"Le Montgomerie","address":"356 rte de l'Altiport","zipcode":"73120","city":"Courchevel 1850","chef":"","stars":"2"},{"name":"Le Pavillon","address":"av. du Verger","zipcode":"62520","city":"Le Touquet-Paris-Plage","chef":"","stars":"1"},{"name":"Jin","address":"6 Rue de la Sourdière","zipcode":"75001","city":"Paris","chef":"Taku","stars":"1"},{"name":"Château de Vauchoux","address":"","zipcode":"70170","city":"Vauchoux","chef":"Jean-Michel Turin","stars":"1"},{"name":"La Table des Blot - Auberge du Château","address":"1 Grande-Rue","zipcode":"78720","city":"Dampierre-en-Yvelines","chef":"Christophe Blot","stars":"1"},{"name":"Arpège","address":"84 Rue de Varenne","zipcode":"75007","city":"Paris","chef":"Alain Passard","stars":"3"},{"name":"Château Blanchard","address":"36 rte de St-Galmier","zipcode":"42140","city":"Chazelles-sur-Lyon","chef":"Sylvain Roux","stars":"1"},{"name":"La Ribaudière","address":"2 pl. du Port","zipcode":"16200","city":"Bourg-Charente","chef":"Thierry Verrat","stars":"1"},{"name":"Le Refuge des Gourmets","address":"90 route des Framboises","zipcode":"74140","city":"Machilly","chef":"Jean-Marie et Hubert Chanove","stars":"1"},{"name":"La Rastègue","address":"48 bd du Levant","zipcode":"83230","city":"Bormes-les-Mimosas","chef":"Jérôme Masson","stars":"1"},{"name":"MaSa","address":"112 avenue Victor-Hugo","zipcode":"92100","city":"Boulogne-Billancourt","chef":"Hervé Rodriguez","stars":"1"},{"name":"La Bastide St-Antoine","address":"48 av. Henri-Dunant","zipcode":"06130","city":"Grasse","chef":"Jacques Chibois","stars":"1"},{"name":"Le Fanal","address":"17 Avenue du Fontaulé","zipcode":"66650","city":"Banyuls-sur-Mer","chef":"Pascal Borrell","stars":"1"},{"name":"Le Figuier de St-Esprit","address":"7, Promenade Amiral de Grasse","zipcode":"06600","city":"Antibes","chef":"Christian Morisset","stars":"1"},{"name":"Le Sénéchal","address":"Sauveterre de Rouergue","zipcode":"12800","city":"Sauveterre-de-Rouergue","chef":"Michel Truchon","stars":"1"},{"name":"Antoine","address":"10 av. de New-York","zipcode":"75116","city":"Paris 16","chef":"Thibault Sombardier","stars":"1"},{"name":"Au 14 Février","address":"2 r. du Portail","zipcode":"36100","city":"Saint-Valentin","chef":"","stars":"1"},{"name":"Le 7ème Continent","address":"35 av. Gén. -de-Gaulle","zipcode":"68170","city":"Rixheim","chef":"Laurent Haller","stars":"1"},{"name":"Comice","address":"31 av. de Versailles","zipcode":"75016","city":"Paris","chef":"Noam Gedalof","stars":"1"},{"name":"Château de Mirambeau","address":"1 Avenue des Comtes Duchatel","zipcode":"17150","city":"Mirambeau","chef":"","stars":"1"},{"name":"Alliance","address":"5 Rue de Poissy","zipcode":"75005","city":"Paris","chef":"Toshitaka Omiya","stars":"1"},{"name":"Ô Saveurs","address":"8 place Ormeaux au village","zipcode":"31180","city":"ROUFFIAC-TOLOSAN","chef":"David Biasibetti","stars":"1"},{"name":"Le Pousse-Pied","address":"84 bd des Vendéens","zipcode":"85360","city":"La Tranche-sur-Mer","chef":"Anthony Lumet","stars":"1"},{"name":"Le Park 45","address":"45 bd de la Croisette","zipcode":"06400","city":"Cannes","chef":"","stars":"1"},{"name":"Azimut","address":"273 r. de la Madelon","zipcode":"73120","city":"Courchevel-Saint-Bon","chef":"François Moureaux","stars":"1"},{"name":"L'Oustau de Baumanière","address":"Village des Baux-de-Provence","zipcode":"13520","city":"Les Baux-de-Provence","chef":"Jean-André Charial","stars":"2"},{"name":"Astrance","address":"4 r. Beethoven","zipcode":"75016","city":"Paris","chef":"Pascal Barbot","stars":"3"},{"name":"Pierre Orsi","address":"Place Kléber","zipcode":"69006","city":"Lyon 06","chef":"Pierre Orsi","stars":"1"},{"name":"ES","address":"91 r. de Grenelle","zipcode":"75007","city":"Paris","chef":"Takayuki Honjo","stars":"1"},{"name":"L'Atelier du Peintre","address":"1 Rue Schongauer","zipcode":"68000","city":"Colmar","chef":"Loïc Lefebvre","stars":"1"},{"name":"Le Grand Bleu","address":"43 av. de la Gare","zipcode":"24200","city":"Sarlat-la-Canéda","chef":"Maxime Lebrun","stars":"1"},{"name":"J.-M. Pérochon","address":"63 avenue de la Grand'Roche","zipcode":"85470","city":"Brétignolles-sur-Mer","chef":"Jean-Marc Pérochon","stars":"1"},{"name":"La Passagère","address":"33 boulevard E. -Baudoin","zipcode":"06160","city":"Juan-les-Pins","chef":"Aurélien VÉQUAUD","stars":"1"},{"name":"Le Bistro des Saveurs","address":"35 Rue de Sélestat","zipcode":"67210","city":"Obernai","chef":"Thierry Schwartz","stars":"1"},{"name":"Rackham","address":"27 pl. Lacaze Duthiers rčs de l'église","zipcode":"29680","city":"ROSCOFF","chef":"Arthur Péran","stars":"1"},{"name":"L'Écrin","address":"10 place de la Concorde","zipcode":"75008","city":"Paris","chef":"Christopher Hache","stars":"1"},{"name":"Mirazur","address":"30, Avenue Aristide Briand","zipcode":"06500","city":"Menton","chef":"Mauro Colagreco","stars":"2"},{"name":"Villa René Lalique","address":"18 Rue Bellevue","zipcode":"67290","city":"Wingen-sur-Moder","chef":"Jean-Georges Klein","stars":"2"},{"name":"Gaya Rive Gauche par Pierre Gagnaire","address":"44 r. du Bac","zipcode":"75007","city":"Paris","chef":"","stars":"1"},{"name":"La Barbacane","address":"Place Auguste-Pierre-Pont","zipcode":"11000","city":"Carcassonne","chef":"RYON Jérôme","stars":"1"},{"name":"Restaurant des Rois","address":"5 Boulevard du Maréchal Leclerc","zipcode":"06310","city":"Beaulieu-sur-Mer","chef":"Yannick Franques","stars":"1"},{"name":"Au Souper Fin","address":"1 rte de Clères","zipcode":"76690","city":"Frichemesnil","chef":"Eric Buisset","stars":"1"},{"name":"Pages","address":"4 r. Auguste-Vacquerie","zipcode":"75016","city":"Paris","chef":"Ryuji Teshima","stars":"1"},{"name":"Le Sérac","address":"22 r. de la Comtesse","zipcode":"74170","city":"Saint-Gervais-les-Bains","chef":"Raphaël Le Mancq","stars":"1"},{"name":"Pont de l'Ouysse","address":"D23","zipcode":"46200","city":"Lacave","chef":"Daniel et Stéphane Chambon","stars":"1"},{"name":"La Chassagnette","address":"route du Sambuc","zipcode":"13200","city":"ARLES","chef":"Armand Arnal","stars":"1"},{"name":"Auberge à la Bonne Idée","address":"3 rue des Meuniers","zipcode":"60350","city":"SAINT-JEAN-AUX-BOIS","chef":"Yves Giustinani","stars":"1"},{"name":"L'Orangerie du Château","address":"1 Avenue du Docteur Jean Laigret","zipcode":"41000","city":"Blois","chef":"Jean-Marc Molveaux","stars":"1"},{"name":"La Maison de Bournissac","address":"montée d'Eyragues","zipcode":"13550","city":"Les Paluds-des-Noves","chef":"Christian Peyre","stars":"1"},{"name":"Le Farçon","address":"immeuble la Kalinka","zipcode":"73125","city":"La Tania","chef":"Julien Machet","stars":"1"},{"name":"La Table de Patrick Raingeard","address":"1312 av. Raymond-Poincaré","zipcode":"06360","city":"EZE-BORD-DE-MER","chef":"Patrick RAINGEARD","stars":"1"},{"name":"L'Oasis","address":"6 rue Jean-Honoré Carle","zipcode":"06210","city":"La Napoule","chef":"Stéphane, Antoine et François Raimbault","stars":"2"},{"name":"Sushi B","address":"5 r. Rameau","zipcode":"75002","city":"Paris","chef":"","stars":"1"},{"name":"Les Loges","address":"6 r. du Boeuf","zipcode":"69005","city":"Lyon 05","chef":"Anthony Bonnet","stars":"1"},{"name":"L'Escarbille","address":"8 Rue de Vélizy","zipcode":"92190","city":"Meudon","chef":"Régis Douysset","stars":"1"},{"name":"La Table des Cordeliers","address":"1 r. des Cordeliers","zipcode":"32100","city":"Condom","chef":"Éric Sampietro","stars":"1"},{"name":"Greuze","address":"1 r. A. Thibaudet","zipcode":"71700","city":"Tournus","chef":"Yohann Chapuis","stars":"1"},{"name":"Le Baudelaire","address":"8 rue Duphot","zipcode":"75001","city":"Paris 01","chef":"Guillaume Goupil","stars":"1"},{"name":"La Coquerie","address":"1 chemin du Cimetière-Marin","zipcode":"34200","city":"Sète","chef":"Anne Majourel","stars":"1"},{"name":"L'Océan","address":"43 bd Thiers","zipcode":"64500","city":"Saint-Jean-de-Luz","chef":"","stars":"1"},{"name":"Auberge de la Diligence","address":"4 r. de la Libération","zipcode":"49440","city":"Loiré","chef":"Michel Cudraz","stars":"1"},{"name":"Apicius","address":"Marché Saint Pierre 1 étage","zipcode":"63000","city":"Clermont-Ferrand","chef":"Arkadiusz Zuchmanski","stars":"1"},{"name":"La Palmeraie","address":"81 Boulevard de Gigaro","zipcode":"83420","city":"La Croix-Valmer","chef":"Jimmy Coutel","stars":"1"},{"name":"Maison Christian Étienne","address":"10 Rue de Mons","zipcode":"84000","city":"Avignon","chef":"Guilhem Sevin","stars":"1"},{"name":"Domaine d'Auriac","address":"Route de Saint-Hilaire","zipcode":"11000","city":"Carcassonne","chef":"Philippe Deschamps","stars":"1"},{"name":"Vieux Pont","address":"","zipcode":"12390","city":"Belcastel","chef":"Nicole Fagegaltier et Bruno Rouquier","stars":"1"},{"name":"Le Relais Bernard Loiseau","address":"2, rue d'Argentine","zipcode":"21210","city":"Saulieu","chef":"Patrick Bertron","stars":"2"},{"name":"Le Mascaret","address":"1 r. de Bas","zipcode":"50560","city":"Blainville-sur-Mer","chef":"Philippe Hardy","stars":"1"},{"name":"Sylvestre","address":"79 rue St-Dominique","zipcode":"75007","city":"Paris","chef":"Sylvestre Wahid","stars":"2"},{"name":"Auberge La Fenière","address":"D943","zipcode":"84160","city":"Cadenet","chef":"Reine Sammut","stars":"1"},{"name":"Val d'Auge","address":"805 av. du Gén.-de-Gaulle","zipcode":"59910","city":"Bondues","chef":"Christophe Hagnerelle","stars":"1"},{"name":"Patrick Jeffroy","address":"20 rue du Kelenn","zipcode":"29660","city":"Carantec","chef":"Patrick Jeffroy","stars":"2"},{"name":"Les Clefs d'Argent","address":"333 Avenue des Martyrs de la Résistance","zipcode":"40000","city":"Mont-de-Marsan","chef":"Christophe Dupouy","stars":"1"},{"name":"Auberge du Bon Laboureur","address":"6 r. Dr Bretonneau","zipcode":"37150","city":"Chenonceaux","chef":"Antoine Jeudi","stars":"1"},{"name":"Cyril Attrazic","address":"10 rte du Languedoc","zipcode":"48130","city":"Aumont-Aubrac","chef":"ATTRAZIC Cyril","stars":"1"},{"name":"L'Impertinent","address":"5, rue d'Alsace","zipcode":"64200","city":"Biarritz","chef":"Fabian Feldmann","stars":"1"},{"name":"Michel Chabran - La Grande Table","address":"29 Avenue du Quarante-Cinquième Parallèle","zipcode":"26600","city":"Pont-de-l'Isère","chef":"Michel Chabran","stars":"1"},{"name":"Cayola","address":"76 promenade de Cayola","zipcode":"85180","city":"Talmont-Saint-Hilaire","chef":"","stars":"1"},{"name":"Toya","address":"av. Jean-Monnet","zipcode":"57380","city":"Faulquemont","chef":"Loïc Villemin","stars":"1"},{"name":"Loiseau des Ducs","address":"3 Rue Vauban","zipcode":"21000","city":"Dijon","chef":"Louis-Philippe Vigilant","stars":"1"},{"name":"La Vieille Tour","address":"75 r. de la Tour","zipcode":"22190","city":"Plérin","chef":"Nicolas Adam","stars":"1"},{"name":"Les Rosiers","address":"32 av. Beau Soleil","zipcode":"64200","city":"Biarritz","chef":"Andrée et Stéphane Rosier","stars":"1"},{"name":"Restaurant du Château","address":"15 avenue des Reynats","zipcode":"24650","city":"Chancelade","chef":"HABERLAND Cyril","stars":"1"},{"name":"La Table du Connétable","address":"4 Rue du Connétable","zipcode":"60500","city":"Chantilly","chef":"Julien Lucas","stars":"1"},{"name":"Prairial","address":"11 Rue Chavanne","zipcode":"69001","city":"Lyon","chef":"Gaëtan Gentil","stars":"1"},{"name":"Louison","address":"2750 route de la cride","zipcode":"13610","city":"Le Puy-Sainte-Réparade","chef":"Gérald Passedat","stars":"1"},{"name":"Le Pressoir d'Argent - Gordon Ramsay","address":"2,5 Place de la Comédie","zipcode":"33000","city":"Bordeaux","chef":"Gordon Ramsay et le Chef Exécutif Gilad Peled","stars":"2"},{"name":"L'Atelier Yssoirien","address":"39 Boulevard Triozon-Bayle","zipcode":"63500","city":"Issoire","chef":"Dorian Van Bronkhorst","stars":"1"},{"name":"Ô Flaveurs","address":"Château de Chilly","zipcode":"74140","city":"Douvaine","chef":"Jérôme Mamet","stars":"1"},{"name":"Henri et Joseph","address":"4 r. Léo-le-Bourgo","zipcode":"56100","city":"Lorient","chef":"Philippe Le Lay","stars":"1"},{"name":"La Renaissance","address":"20 av. 2e-Division-Blindée","zipcode":"61200","city":"Argentan","chef":"Arnaud Viel","stars":"1"},{"name":"Le Château de Sable","address":"38 r. de l'Europe","zipcode":"29840","city":"Porspoder","chef":"","stars":"1"},{"name":"Alcyone","address":"1 Place Daviel","zipcode":"13002","city":"MARSEILLE","chef":"Lionel Levy","stars":"1"},{"name":"Les Tables de Gaspard","address":"r. Principale","zipcode":"05600","city":"St-Crépin","chef":"Sébastien Corniau","stars":"1"},{"name":"La Table d'Hôtes - Le Quatrième Mur","address":"2 pl. de la Comédie","zipcode":"33000","city":"Bordeaux","chef":"Philippe Etchebest","stars":"1"},{"name":"Stéphane Carbone","address":"14 r. de Courtonne","zipcode":"14000","city":"Caen","chef":"","stars":"1"},{"name":"Alain Llorca","address":"350 Route de Saint-Paul","zipcode":"06480","city":"La Colle-sur-Loup","chef":"","stars":""},{"name":"La Table de Nans","address":"corniche du Liouquet","zipcode":"13600","city":"La Ciotat","chef":"Nans Gaillard","stars":"1"},{"name":"Allium","address":"88 bd de Créac'h-Gwen","zipcode":"29000","city":"Quimper","chef":"Lionel Hénaff","stars":"1"},{"name":"La Ville Blanche","address":"La Ville Blanche","zipcode":"22300","city":"Rospez","chef":"Jean-Yves Jaguin","stars":"1"},{"name":"Garance","address":"34 r. St-Dominique","zipcode":"75007","city":"Paris","chef":"Guillaume Iskandar","stars":"1"},{"name":"Les Ducs de Lorraine","address":"5 av. Provence","zipcode":"88000","city":"Épinal","chef":"Stéphane Ringer et Rémi Gornet","stars":"1"},{"name":"Fanny Rey & Jonathan Wahid","address":"12, boulevard Mirabeau","zipcode":"13210","city":"SAINT REMY DE PROVENCE","chef":"Fanny Rey & Jonathan Wahid","stars":"1"},{"name":"Yoann Conte","address":"13 Vieille-Route-des-Pensières","zipcode":"74290","city":"Veyrier-du-Lac","chef":"","stars":""},{"name":"L'Atelier d'Edmond","address":"au Fornet","zipcode":"73150","city":"Val-d'Isère","chef":"Benoît Vidal","stars":"2"},{"name":"La Fourchette du Printemps","address":"30 r. du Printemps","zipcode":"75017","city":"Paris","chef":"Nicolas Mouton","stars":"1"},{"name":"Le Coquillage","address":"Lieu-dit Le Buot","zipcode":"35350","city":"Saint-Méloir-des-Ondes","chef":"Hugo Roellinger","stars":"1"},{"name":"Le Pêché Gourmand","address":"2 rte de Gap","zipcode":"05100","city":"Briançon","chef":"Sharon et Jimmy Frannais","stars":"1"},{"name":"L'Aromate","address":"2 r. Gustave Deloye","zipcode":"06000","city":"Nice","chef":"Mickaël Gracieux","stars":"1"},{"name":"En Pleine Nature","address":"6 pl. de la Mairie","zipcode":"31130","city":"Fonsegrives","chef":"Sylvain Joffre","stars":"1"},{"name":"La Tour","address":"31 Nouvelle-Place","zipcode":"18300","city":"Sancerre","chef":"","stars":""},{"name":"René et Maxime Meilleur","address":"Saint Marcel","zipcode":"73440","city":"Saint-Martin-de-Belleville","chef":"","stars":""}]}