{"restaurants":[{"name":"Restaurant H","address":"13 r. Jean-Beausire","zipcode":"75004","city":"Paris","chef":"Hubert Duchenne"},{"name":"La Table by La Villa","address":"chemin de Notre-Dame-de-la-Serra","zipcode":"20260","city":"Calvi","chef":""},{"name":"Sushi B","address":"5 r. Rameau","zipcode":"75002","city":"Paris","chef":""},{"name":"La Table des Sens","address":"8 r. de Penne","zipcode":"47300","city":"Villeneuve-sur-Lot","chef":"Hervé Sauton"},{"name":"Pèir","address":"r. de la Combe","zipcode":"84220","city":"Gordes","chef":""},{"name":"Le Skiff Club","address":"1 av. Louis-Gaume","zipcode":"33260","city":"La Teste-de-Buch","chef":""},{"name":"L'Atlantide 1874 - Maison Guého","address":"5 r. de l'Hermitage","zipcode":"44100","city":"Nantes","chef":"Jean-Yves Guého"},{"name":"Le Saint-Estève","address":"2250 route cézanne D17","zipcode":"13100","city":"Le Tholonet","chef":"Mathias Dandine"},{"name":"Une Île","address":"9 r. Max-Richard","zipcode":"49000","city":"Angers","chef":"Gérard Bossé"},{"name":"Qui plume la Lune","address":"50 r. Amelot","zipcode":"75011","city":"Paris 11","chef":"Jacky Ribault"},{"name":"Relais de la Poste","address":"21 rue du Gén. -de-Gaulle","zipcode":"67610","city":"LA-WANTZENAU","chef":"Bruno Sohn"},{"name":"Le Vivier","address":"800 cours F. Peyre (rte de Carpentras)","zipcode":"84800","city":"L'Isle-sur-la-Sorgue","chef":"ROMAIN GANDOLPHE"},{"name":"William Frachot","address":"5 rue Michelet","zipcode":"21000","city":"DIJON","chef":"William Frachot"},{"name":"Alain Llorca","address":"350 Route de St-Paul","zipcode":"06480","city":"La Colle-sur-Loup","chef":"LLORCA ALAIN"},{"name":"La Ciboulette","address":"10 r. Vaugelas","zipcode":"74000","city":"Annecy","chef":"Georges Paccard"},{"name":"Le 39V","address":"39 Avenue George V","zipcode":"75008","city":"Paris 08","chef":"Frédéric Vardon"},{"name":"La Grenouillère","address":"19 r. de la Grenouillère","zipcode":"62170","city":"La Madelaine-sous-Montreuil","chef":"Alexandre Gauthier"},{"name":"Les Trois Rochers","address":"16 rue du Phare","zipcode":"29120","city":"Sainte-Marine","chef":"Fréderic Claquin"},{"name":"Le Violon d'Ingres","address":"135 route St-Dominique","zipcode":"75007","city":"Paris","chef":"Christian Constant"},{"name":"Auberge du Dun","address":"3 rte de Dieppe","zipcode":"76740","city":"Le Bourg-Dun","chef":"Pierre Chrétien"},{"name":"Pierre Reboul","address":"260 rue Guillaume-du-Vair","zipcode":"13546","city":"Aix-en-Provence","chef":""},{"name":"Le Foch","address":"37 bd Foch","zipcode":"51100","city":"Reims","chef":"Jacky Louazé"},{"name":"Radio","address":"43 av. P. et M.-Curie","zipcode":"63400","city":"Chamalières","chef":"Wilfrid CHAPLAIN "},{"name":"L'Esprit de la Violette","address":"10 Avenue de la Violette","zipcode":"13100","city":"Aix-en-Provence","chef":"Marc de Passorio"},{"name":"Akrame","address":"7 r. Tronchet","zipcode":"75008","city":"Paris","chef":"Akrame Benallal"},{"name":"Mathieu Pacaud - Histoires","address":"85 Avenue Kléber","zipcode":"75016","city":"Paris","chef":"Mathieu Pacaud"},{"name":"Divellec","address":"18 r. Fabert","zipcode":"75007","city":"Paris","chef":""},{"name":"Sur Mesure par Thierry Marx","address":"251 r. St-Honoré","zipcode":"75001","city":"Paris 01","chef":"Thierry Marx"},{"name":"Le 7ème Continent","address":"35 av. Gén. -de-Gaulle","zipcode":"68170","city":"Rixheim","chef":"Laurent Haller"},{"name":"Château de Mirambeau","address":"1 Avenue des Comtes Duchatel","zipcode":"17150","city":"Mirambeau","chef":""},{"name":"Septime","address":"80 r. de Charonne","zipcode":"75011","city":"Paris","chef":"Bertrand Grébaut"},{"name":"La Table du Connétable","address":"4 Rue du Connétable","zipcode":"60500","city":"Chantilly","chef":"Julien Lucas"},{"name":"La Table d'Eugène","address":"18 r. Eugène-Sue","zipcode":"75018","city":"Paris","chef":"Geoffroy Maillard"},{"name":"Pierre Gagnaire pour les Airelles","address":"au Jardin Alpin","zipcode":"73120","city":"Courchevel 1850","chef":""},{"name":"L'Escargot 1903","address":"18 rue Charles-Lorilleux","zipcode":"92800","city":"Puteaux","chef":"Paolo Boscaro"},{"name":"Patrick Jeffroy","address":"20 rue du Kelenn","zipcode":"29660","city":"Carantec","chef":"Patrick Jeffroy"},{"name":"Quai des Saveurs","address":"69 rue de la Gare","zipcode":"57300","city":"Hagondange","chef":"Frédéric Sandrini"},{"name":"Le Restaurant des Rois","address":"5 Boulevard du Maréchal Leclerc","zipcode":"06310","city":"Beaulieu-sur-Mer","chef":"Yannick Franques"},{"name":"Vieux Pont","address":"","zipcode":"12390","city":"BELCASTEL","chef":"Nicole Fagegaltier et Bruno Rouquier"},{"name":"La Table de Patrick Raingeard","address":"1312 av. Raymond-Poincaré","zipcode":"06360","city":"EZE-BORD-DE-MER","chef":"Patrick RAINGEARD"},{"name":"L'Étang du Moulin","address":"5 chemin de l'Etang du Moulin","zipcode":"25210","city":"Bonnétage","chef":"Jacques Barnachon"},{"name":"Les Cèdres","address":"25 Rue Henri MACHON","zipcode":"26600","city":"Granges-les-Beaumont","chef":"Jacques Bertrand"},{"name":"Rodolphe","address":"35 r. Percière","zipcode":"76000","city":"Rouen","chef":"Rodolphe Pottier"},{"name":"Château de Codignat","address":"Bort l'Etang","zipcode":"63190","city":"Bort-l'Étang","chef":"Barbet Matthieu"},{"name":"La Table du 11","address":"8 rue de la chancellerie","zipcode":"78000","city":"Versailles","chef":"Jean-Baptiste Lavergne Morazzani"},{"name":"Nakatani","address":"27 Rue Pierre Leroux","zipcode":"75007","city":"PARIS","chef":"Shinsuke Nakatani"},{"name":"Paul Bocuse","address":"40 Rue de la Plage","zipcode":"69660","city":"Collonges-au-Mont-d'Or","chef":"Paul BOCUSE"},{"name":"Le Chabichou","address":"90 Route des Chenus","zipcode":"73120","city":"Courchevel 1850","chef":"Michel Rochedy"},{"name":"La Marande","address":"rte de Lugny","zipcode":"71260","city":"Montbellet","chef":"Philippe Michel"},{"name":"Les Climats","address":"41 rue de Lille","zipcode":"75007","city":"Paris 07","chef":"Julien Boscus"},{"name":"La table de Franck Putelat","address":"80 chemin des Anglais","zipcode":"11000","city":"Carcassonne","chef":"Mr Franck PUTELAT"},{"name":"Les Bacchanales","address":"247 avenue de Provence","zipcode":"06140","city":"VENCE","chef":"Christophe Dufau"},{"name":"Auberge du Cheval Blanc","address":"4 Route de Wissembourg","zipcode":"67510","city":"Lembach","chef":"Pascal Bastian"},{"name":"L'Aubergade","address":"78 rte Nationale","zipcode":"80480","city":"Dury","chef":"Eric Boutté"},{"name":"Meulien","address":"1 bis av. des Alpes","zipcode":"71700","city":"Tournus","chef":"Valéry Meulien"},{"name":"Auberge de Clochemerle","address":"Rue Gabriel-Chevallier","zipcode":"69460","city":"VAUX-EN-BEAUJOLAIS","chef":"Romain Barthe"},{"name":"Pages","address":"4 r. Auguste-Vacquerie","zipcode":"75016","city":"Paris","chef":"Ryuji Teshima"},{"name":"Le Park 45","address":"45 bd de la Croisette","zipcode":"06400","city":"Cannes","chef":""},{"name":"La Liégeoise","address":"digue de mer","zipcode":"62930","city":"Wimereux","chef":"Alain et Benjamin Delpierre"},{"name":"Le Vieux Logis","address":"Le Bourg","zipcode":"24510","city":"Trémolat","chef":"ARNOULD Vincent"},{"name":"Gavroche","address":"4 r. Klein","zipcode":"67000","city":"Strasbourg","chef":"Benoit Fuchs"},{"name":"Hexagone","address":"85 Avenue Kléber","zipcode":"75016","city":"Paris","chef":"Mathieu Pacaud"},{"name":"L'Océan","address":"43 bd Thiers","zipcode":"64500","city":"Saint-Jean-de-Luz","chef":""},{"name":"La Chèvre d'Or","address":"r. du Barri","zipcode":"06360","city":"Èze","chef":"Arnaud Faye, Chef Exécutif et Julien Dugourd, Chef Pâtissier"},{"name":"Baumanière 1850","address":"rte de Bellecôte","zipcode":"73120","city":"Courchevel 1850","chef":""},{"name":"L'Alexandrin","address":"83 r. Moncey","zipcode":"69003","city":"Lyon","chef":"Laurent Rigal"},{"name":"Astrance","address":"4 r. Beethoven","zipcode":"75016","city":"Paris","chef":"Pascal Barbot"},{"name":"Buerehiesel","address":"dans le parc de l'Orangerie","zipcode":"67000","city":"Strasbourg","chef":"Eric Westermann"},{"name":"Pic","address":"285 avenue Victor Hugo","zipcode":"26000","city":"Valence","chef":"Anne-Sophie Pic"},{"name":"Brikéténia","address":"142 r. de l'Église","zipcode":"64210","city":"Guéthary","chef":"Martin et David Ibarboure"},{"name":"Le Pily","address":"39 Grande-Rue","zipcode":"50100","city":"Cherbourg-en-Cotentin","chef":"Pierre Marion"},{"name":"Miraflores","address":"60 r. Garibaldi","zipcode":"69006","city":"Lyon","chef":"Carlos Camino"},{"name":"Alain Ducasse au Plaza Athénée","address":"25 avenue Montaigne","zipcode":"75008","city":"Paris","chef":""},{"name":"La Vieille Tour","address":"75 r. de la Tour","zipcode":"22190","city":"Plérin","chef":"Nicolas Adam"},{"name":"Le Cerf","address":"30 r. du Gén.-de-Gaulle","zipcode":"67520","city":"Marlenheim","chef":"Michel Husser"},{"name":"L'Oustau de Baumanière","address":"Village des Baux-de-Provence","zipcode":"13520","city":"Les Baux-de-Provence","chef":"Jean-André Charial"},{"name":"La Balette","address":"rte de Port-Vendres","zipcode":"66190","city":"Collioure","chef":"Frederic Bacquie"},{"name":"Lasserre","address":"17 Avenue F. -D. -Roosevelt","zipcode":"75008","city":"Paris 08","chef":""},{"name":"Dominique Bucaille","address":"715 av. des Savels","zipcode":"04100","city":"Manosque","chef":"Bucaille Dominique"},{"name":"Stéphane Carbone","address":"14 r. de Courtonne","zipcode":"14000","city":"Caen","chef":""},{"name":"Auberge des Templiers","address":"D2007","zipcode":"45290","city":"Les Bézards","chef":"Yoshihiko MIURA"},{"name":"Allium","address":"88 bd de Créac'h-Gwen","zipcode":"29000","city":"Quimper","chef":"Lionel Hénaff"},{"name":"Auberge St-Jean","address":"8 r. du Pont","zipcode":"33420","city":"Saint-Jean-de-Blaignac","chef":"Thomas L'Hérisson"},{"name":"Le Pot d'Étain","address":"4 av. de la République","zipcode":"90400","city":"Danjoutin","chef":"Philippe Zeiger"},{"name":"La Gloire","address":"74 av. du Gén.-de-Gaulle","zipcode":"45200","city":"Montargis","chef":"Jean-Claude Martin"},{"name":"Auberge de la Brie","address":"14 av. Alphonse Boulingre","zipcode":"77860","city":"Couilly-Pont-aux-Dames","chef":"Alain Pavard"},{"name":"Les Explorateurs","address":"place du Slalom","zipcode":"73440","city":"VAL THORENS","chef":"Josselin JEANBLANC"},{"name":"Ithurria","address":"pl. du Fronton","zipcode":"64250","city":"Ainhoa","chef":"Xavier Isabal"},{"name":"La Promenade","address":"11 rue du Savoureulx","zipcode":"37350","city":"Le Petit-Pressigny","chef":"Fabrice et Jacky Dallais"},{"name":"L'Oasis","address":"rue Jean-Honoré Carle","zipcode":"06210","city":"La Napoule","chef":"Stéphane, Antoine et François Raimbault"},{"name":"Maison Christian Étienne","address":"10 Rue de Mons","zipcode":"84000","city":"Avignon","chef":"Guilhem Sevin"},{"name":"Hostellerie de Plaisance","address":"5 place du Clocher","zipcode":"33330","city":"Saint-Emilion","chef":"Ronan Kervarrec"},{"name":"Auberge La Fenière","address":"D943","zipcode":"84160","city":"Cadenet","chef":"Reine Sammut"},{"name":"Octopus","address":"12, rue François Adrien Boieldieu","zipcode":"34500","city":"Béziers","chef":"Fabien Lefebvre"},{"name":"Au 14 Février","address":"2 r. du Portail","zipcode":"36100","city":"Saint-Valentin","chef":""},{"name":"Stéphane Tournié - Les Jardins de l'Opéra","address":"1 place du Capitole","zipcode":"31000","city":"Toulouse","chef":"Stéphane Tournié"},{"name":"Le Pré - Xavier Beaudiment","address":"3 Route de la Baraque","zipcode":"63830","city":"Durtol","chef":"BEAUDIMENT Xavier"},{"name":"Le St-Martin","address":"1 r. du Gén.-Leclerc","zipcode":"25200","city":"Montbéliard","chef":"Olivier Prévôt-Carme"},{"name":"Auberge du Cellier","address":"1 Rue de Sainte-Eugénie","zipcode":"66720","city":"Montner","chef":"Pierre-Louis Marin"},{"name":"L'Impertinent","address":"5, rue d'Alsace","zipcode":"64200","city":"Biarritz","chef":"Fabian Feldmann"},{"name":"La Villa Madie","address":"av. du Revestel","zipcode":"13260","city":"Cassis","chef":"Dimitri Droisneau"},{"name":"Au Vieux Couvent","address":"6 r. des Chanoines","zipcode":"67860","city":"Rhinau","chef":"Alexis Albrecht"},{"name":"Le Clos des Sens","address":"13 r. J. -Mermoz","zipcode":"74940","city":"Annecy","chef":"Laurent Petit"},{"name":"JY'S","address":"17 r. de la Poissonnerie","zipcode":"68000","city":"Colmar","chef":"Jean-Yves Schillinger"},{"name":"L'Axel","address":"43 r. de France","zipcode":"77300","city":"Fontainebleau","chef":"Kunihisa Goto"},{"name":"La Table d'Olivier","address":"3 r. St-Ambroise","zipcode":"19100","city":"Brive-la-Gaillarde","chef":"Pierre Neveu"},{"name":"La Cachette","address":"Rue des Cévennes","zipcode":"26000","city":"Valence","chef":"Masashi Ijichi"},{"name":"Auberge de l'Abbaye","address":"47 place des anciens Combattants","zipcode":"01500","city":"Ambronay","chef":"Ivan Lavaux"},{"name":"Le Bateau Ivre","address":"RD 1504","zipcode":"73370","city":"Le Bourget-du-Lac","chef":"Jean-Pierre Jacob"},{"name":"La Côte Saint-Jacques","address":"14 faubourg de Paris","zipcode":"89300","city":"Joigny","chef":"Jean-Michel Lorain"},{"name":"Le Chiberta","address":"3 Rue Arsène Houssaye","zipcode":"75008","city":"Paris 08","chef":"Stéphane Laruelle"},{"name":"Guy Lassausaie","address":"r. de Belle-Sise","zipcode":"69380","city":"Chasselay","chef":""},{"name":"Terre-Mer","address":"16 r. du Jeu-de-Paume","zipcode":"56400","city":"Auray","chef":"Anthony Jéhanno"},{"name":"Les Chênes Verts","address":"rte de Villecroze","zipcode":"83690","city":"Tourtour","chef":""},{"name":"1912","address":"bd de la Cahotte","zipcode":"14360","city":"Trouville-sur-Mer","chef":"Le chef Johan THYRIOT"},{"name":"Jérémy Galvan","address":"Rue du Boeuf","zipcode":"69005","city":"Lyon 05","chef":""},{"name":"Mère Brazier","address":"12 rue Royale","zipcode":"69001","city":"LYON","chef":"Mathieu Viannay"},{"name":"Assa","address":"189 Quai Ulysse Besnard","zipcode":"41000","city":"Blois","chef":"Fumiko et Anthony Maubert"},{"name":"Le Pavé d'Auge","address":"D49","zipcode":"14430","city":"Beuvron-en-Auge","chef":"Jérôme Bansard"},{"name":"La Table des Blot - Auberge du Château","address":"1 Grande-Rue","zipcode":"78720","city":"Dampierre-en-Yvelines","chef":"Christophe Blot"},{"name":"Frédéric Simonin","address":"25 rue Bayen","zipcode":"75017","city":"Paris","chef":"FREDERIC SIMONIN"},{"name":"Auberge Le Prieuré","address":"Le Bourg","zipcode":"47310","city":"Moirax","chef":"Benjamin Toursel"},{"name":"Les Tables de Gaspard","address":"r. Principale","zipcode":"05600","city":"St-Crépin","chef":"Sébastien Corniau"},{"name":"Restaurant de Lauzun","address":"3 bd de l'Esplanade","zipcode":"34150","city":"Gignac","chef":"Matthieu de Lauzun"},{"name":"Le Champ des Lunes","address":"route de Roquefraîche","zipcode":"84360","city":"Lauris","chef":"Jérôme FAURE"},{"name":"À Contre Sens","address":"8 r. des Croisiers","zipcode":"14000","city":"Caen","chef":"Anthony Caillot"},{"name":"La Mare aux Oiseaux","address":"223 RUE DU CHEF DE L'ILE Fedrun","zipcode":"44720","city":"Saint-Joachim","chef":"Eric Guérin"},{"name":"La Coopérative","address":"2A Route de Caladroy","zipcode":"66720","city":"Bélesta","chef":"LEMAL Laurent"},{"name":"Le Carmin","address":"4B Place Carnot","zipcode":"21200","city":"Beaune","chef":"Christophe Quéant"},{"name":"Le Château de Sable","address":"38 r. de l'Europe","zipcode":"29840","city":"Porspoder","chef":""},{"name":"Manoir de la Boulaie","address":"33 rue Chapelle St-Martin","zipcode":"44115","city":"HAUTE-GOULAINE","chef":"Laurent Saudeau"},{"name":"La Robe","address":"3 pl. Reveillère-Lepeaux","zipcode":"85600","city":"Montaigu","chef":"Xavier Giraudet"},{"name":"Le Lido","address":"42 av. Napoléon-III","zipcode":"20110","city":"Propriano","chef":"Romuald ROYER"},{"name":"Aux Anges","address":"6 Place Georges Clemenceau","zipcode":"42300","city":"Roanne","chef":"Marco Viganò"},{"name":"Passions et Gourmandises","address":"6 r. du Square","zipcode":"86280","city":"Saint-Benoît","chef":"Richard Toix"},{"name":"Le Village","address":"3 Grande-Rue","zipcode":"78160","city":"Marly-le-Roi","chef":"Tomohiro Uido"},{"name":"Origine","address":"26 rampe Cauchoise","zipcode":"76000","city":"Rouen","chef":"Benjamin Lechevallier"},{"name":"La Réserve Rimbaud","address":"820 Avenue de Saint-Maur","zipcode":"34000","city":"Montpellier","chef":"Charles Fontes"},{"name":"La Chassagnette","address":"route du Sambuc","zipcode":"13200","city":"Arles","chef":""},{"name":"Passage 53","address":"53 passage des Panoramas","zipcode":"75002","city":"Paris","chef":"Shinichi Sato"},{"name":"La Marine","address":"3 r. Marie-Lemonnier","zipcode":"85330","city":"L'Herbaudière","chef":"Alexandre Couillon"},{"name":"Le M","address":"22 r. du Cdt-Drogou","zipcode":"29200","city":"Brest","chef":"Philippe Le Bigot"},{"name":"Le Millénaire","address":"4 rue Bertin","zipcode":"51100","city":"Reims","chef":"Laurent et Thibault Laplaige"},{"name":"Les Loges","address":"6 r. du Boeuf","zipcode":"69005","city":"Lyon 05","chef":"Anthony Bonnet"},{"name":"La Table de l'Espadon","address":"15 Place Vendôme","zipcode":"75001","city":"Paris","chef":"Le Chef Nicolas Sale"},{"name":"La Table Saint-Crescent","address":"68 av. du Gén.-Leclerc","zipcode":"11100","city":"Narbonne","chef":"Lionel Giraud"},{"name":"La Licorne Royale","address":"27 Place Isaac Benserade","zipcode":"27480","city":"Lyons-la-Forêt","chef":"Christophe POIRIER"},{"name":"Chez Charles","address":"rte de Calvi","zipcode":"20260","city":"Lumio","chef":""},{"name":"La Matelote","address":"80 Boulevard Ste Beuve","zipcode":"62200","city":"BOULOGNE-SUR-MER","chef":"Tony Lestienne"},{"name":"La Passagère","address":"33 boulevard E. -Baudoin","zipcode":"06160","city":"Juan-les-Pins","chef":"Aurélien VÉQUAUD"},{"name":"Château de Montreuil","address":"4 chaussée des Capucins","zipcode":"62170","city":"Montreuil","chef":"Christian Germain"},{"name":"Ô Flaveurs","address":"Château de Chilly","zipcode":"74140","city":"Douvaine","chef":"Jérôme Mamet"},{"name":"La Vague d'Or","address":"Plage de Bouillabaisse","zipcode":"83990","city":"Saint-Tropez","chef":"Arnaud Donckele"},{"name":"Christophe Bacquié","address":"Hotel du Castellet Route des Hauts du Camp","zipcode":"83330","city":"Le Castellet","chef":"Christophe Bacquié"},{"name":"Hostellerie La Briqueterie","address":"4 route de Sézanne","zipcode":"51530","city":"Vinay","chef":"Thomas Debouzy"},{"name":"Le Colombier","address":"r. Loucheur","zipcode":"76550","city":"Offranville","chef":"Laurent Kleczewski"},{"name":"Le Vivarais","address":"5 avenue Expilly","zipcode":"07600","city":"VALS-LES-BAINS","chef":"POLLY STEPHANE"},{"name":"Maison Prévôt","address":"353 av. de Verdun","zipcode":"84300","city":"Cavaillon","chef":"Jean-Jacques Prévôt"},{"name":"Maximilien","address":"19a rte Ostheim","zipcode":"68340","city":"Zellenberg","chef":"Jean-Michel Eblin"},{"name":"La Marine","address":"11 r. de Paris","zipcode":"50270","city":"Barneville-Carteret","chef":""},{"name":"Le Manoir du Lys","address":"D235","zipcode":"61140","city":"Bagnoles-de-l'Orne","chef":"Franck Quinton"},{"name":"Racine","address":"8 r. Colbert","zipcode":"51100","city":"Reims","chef":"Kazuyuki Tanaka"},{"name":"Raphaël Vionnet","address":"43 Avenue du Général Leclerc","zipcode":"74200","city":"Thonon-les-Bains","chef":"Raphaël Vionnet"},{"name":"Le Saison","address":"1 imp. du Vieux-Bourg","zipcode":"35760","city":"Saint-Grégoire","chef":"David Etcheverry"},{"name":"Dan B. - La Table de Ventabren","address":"r. F. -Mistral","zipcode":"13122","city":"Ventabren","chef":"Dan Bessoudo"},{"name":"Le Pressoir d'Argent - Gordon Ramsay","address":"2,5 Place de la Comédie","zipcode":"33000","city":"Bordeaux","chef":"Gordon Ramsay et le Chef Exécutif Gilad Peled"},{"name":"Le P'tit Polyte","address":"2 Rue de la Chapelle","zipcode":"38860","city":"Les Deux Alpes","chef":"Mathew Hegarty"},{"name":"La Scène","address":"33 Avenue George V","zipcode":"75008","city":"Paris","chef":"Stéphanie Le Quellec"},{"name":"Étincelles - La Gentilhommière","address":"","zipcode":"24440","city":"Sainte-Sabine","chef":"Vincent Lucas"},{"name":"La Tour","address":"31 Nouvelle-Place","zipcode":"18300","city":"Sancerre","chef":"Baptiste Fournier"},{"name":"1131","address":"D 33","zipcode":"21360","city":"La Bussière-sur-Ouche","chef":"Royer Guillaume"},{"name":"Château de Vauchoux","address":"","zipcode":"70170","city":"Vauchoux","chef":"Jean-Michel Turin"},{"name":"Loiseau des Ducs","address":"3 Rue Vauban","zipcode":"21000","city":"Dijon","chef":"Louis-Philippe Vigilant"},{"name":"La Grand'Vigne","address":"chemin de Smith-Haut-Lafitte","zipcode":"33650","city":"Martillac","chef":"Nicolas Masse"},{"name":"Le Domaine Saint Clair by Le W","address":"Le Pelou, Route du Golf,","zipcode":"07430","city":"Saint-Clair","chef":"Edward Cristaudo"},{"name":"L'Auberge des Glazicks","address":"7 rue de la Plage","zipcode":"29550","city":"PLOMODIERN","chef":"Olivier Bellin"},{"name":"L'Auberge de la Pomme","address":"44 rue de l' eure","zipcode":"27340","city":"Les Damps","chef":"William Boquelet"},{"name":"Auberge du Pont d'Acigné","address":"D392","zipcode":"35530","city":"Noyal-sur-Vilaine","chef":"Sylvain Guillemot"},{"name":"Relais Louis XIII","address":"8 Rue des Grands Augustins","zipcode":"75006","city":"Paris","chef":"Manuel Martinez"},{"name":"Garance","address":"34 r. St-Dominique","zipcode":"75007","city":"Paris","chef":"Guillaume Iskandar"},{"name":"La Table Breizh Café","address":"7 quai Thomas","zipcode":"35260","city":"Cancale","chef":"Fumio KUDAKA"},{"name":"Au Crocodile","address":"10 rue de L'Outre","zipcode":"67000","city":"STRASBOURG","chef":"Franck Pelux"},{"name":"L'Olivier","address":"25 Route des Carles","zipcode":"83990","city":"Saint-Tropez","chef":"COLINET PHILIPPE"},{"name":"Le Beaulieu","address":"34 Bis Place République","zipcode":"72000","city":"Le Mans","chef":"Olivier Boussard"},{"name":"Le Musigny","address":"90 Avenue de Liege","zipcode":"59300","city":"Valenciennes","chef":"Emmanuel Hernandez"},{"name":"Villa René Lalique","address":"18 Rue Bellevue","zipcode":"67290","city":"Wingen-sur-Moder","chef":"Jean-Georges Klein"},{"name":"Le Petit Nice","address":"Anse de Maldormé - Corniche J. F. Kennedy","zipcode":"13007","city":"Marseille 07","chef":"Gérald Passedat"},{"name":"La Tour des Vents","address":"Le Moulin de Malfourat","zipcode":"24240","city":"Monbazillac","chef":"Damien Fagette"},{"name":"Hostellerie de Levernois","address":"Rue du Golf","zipcode":"21200","city":"Levernois","chef":""},{"name":"Auberge du Vert Mont","address":"1318 r. du Mont-Noir","zipcode":"59299","city":"Boeschepe","chef":"Florent Ladeyn"},{"name":"L'Imaginaire","address":"1 route de la Fontaine-St-Julien","zipcode":"24120","city":"Terrasson-Lavilledieu","chef":"Thibaut Peyroche d'Arnaud"},{"name":"Fontevraud Le Restaurant","address":"38 rue St-Jean-de-l'Habit","zipcode":"49590","city":"FONTEVRAUD-L'ABBAYE","chef":"Thibaut Ruggeri"},{"name":"La Ferme de l'Hospital","address":"rte du golf","zipcode":"74160","city":"Bossey","chef":"Jean-Jacques Noguier"},{"name":"Les Terrasses d'Uriage","address":"pl. Déesse-Hygie","zipcode":"38410","city":"Uriage-les-Bains","chef":"Christophe Aribert"},{"name":"L'Orangerie","address":"31 Avenue George-V","zipcode":"75008","city":"Paris","chef":"David Bizet "},{"name":"Il Cortile","address":"11 r. des Franciscains","zipcode":"68100","city":"Mulhouse","chef":"Stefano D'Onghia"},{"name":"La Coquerie","address":"1 chemin du Cimetière-Marin","zipcode":"34200","city":"Sète","chef":"Anne Majourel"},{"name":"Auguste","address":"54 r. Bourgogne","zipcode":"75007","city":"Paris 07","chef":"Gaël Orieux"},{"name":"Au 14 Février","address":"36 rue du Boeuf","zipcode":"69005","city":"Lyon","chef":"Tsuyoshi Arai"},{"name":"La Table","address":"32 Rue de la Barre","zipcode":"59000","city":"Lille","chef":"Nicolas Pourcheresse"},{"name":"Le Pergolèse","address":"40, Rue Pergolèse","zipcode":"75016","city":"Paris","chef":"Stéphane Gaborieau"},{"name":"Les Fables de La Fontaine","address":"131 rue St-Dominique","zipcode":"75007","city":"Paris","chef":"Mehdi Karamane"},{"name":"Domaine de Rochevilaine","address":"à la Pointe de Pen Lan","zipcode":"56190","city":"Billiers","chef":"Maxime Nouail"},{"name":"Château du Mont Joly","address":"6 r. du Mont-Joly","zipcode":"39100","city":"Sampans","chef":"Romuald Fassenet"},{"name":"Domaine d'Auriac","address":"Route de Saint-Hilaire","zipcode":"11000","city":"Carcassonne","chef":"Philippe Deschamps"},{"name":"L'Essentiel","address":"8 r. de la Clarté","zipcode":"24000","city":"Périgueux","chef":"Eric Vidal"},{"name":"L'Amaryllis","address":"chemin de Martorey","zipcode":"71100","city":"Saint-Rémy","chef":"Cédric Burtin"},{"name":"Kei","address":"5 rue du Coq-Héron","zipcode":"75001","city":"Paris 01","chef":"Kei Kobayashi"},{"name":"Jean Brouilly","address":"3 ter r. de Paris","zipcode":"69170","city":"Tarare","chef":"Eric Lambolez"},{"name":"Le Charlemagne","address":"1 route des Vergelesses","zipcode":"21420","city":"PERNAND-VERGELESSES","chef":"Laurent Peugeot"},{"name":"Pur' - Jean-François Rouquette","address":"5 r. de la Paix","zipcode":"75002","city":"Paris 02","chef":"ROUQUETTE Jean-François"},{"name":"Le Bénaton","address":"25 Rue du Faubourg-Bretonnière","zipcode":"21200","city":"BEAUNE","chef":"Keishi Sugimura"},{"name":"La Maison dans le Parc","address":"3 r. Ste-Catherine","zipcode":"54000","city":"Nancy","chef":"Françoise Mutel"},{"name":"La Poste","address":"7 Rue du Général de Gaulle","zipcode":"68400","city":"Riedisheim","chef":"Jean-Marc Kieny"},{"name":"Le Raisin","address":"2 pl. M. -Poisat","zipcode":"01190","city":"Pont-de-Vaux","chef":"Frédéric Michel"},{"name":"Le Bouche à Oreille","address":"11 r. de la Chapelle","zipcode":"91150","city":"Boutervilliers","chef":"Aymeric Dreux"},{"name":"La Roya","address":"plage de la Roya","zipcode":"20217","city":"Saint-Florent","chef":""},{"name":"Le Moulin d'Alotz","address":"chemin Alotz-Errota","zipcode":"64200","city":"Alotz","chef":"Benoit Sarthou"},{"name":"Le Refuge des Gourmets","address":"90 route des Framboises","zipcode":"74140","city":"Machilly","chef":"Jean-Marie et Hubert Chanove"},{"name":"Le Figuier de St-Esprit","address":"7, Promenade Amiral de Grasse","zipcode":"06600","city":"Antibes","chef":"Christian Morisset"},{"name":"La Chaumière","address":"346 av. du Mar. -Juin","zipcode":"39100","city":"Dole","chef":"Joël Césari"},{"name":"L'Ekrin by Laurent Azoulay","address":"Route de la Montée","zipcode":"73550","city":"MERIBEL","chef":"Laurent AZOULAY"},{"name":"La Table des Merville","address":"3 place Richard","zipcode":"31320","city":"Castanet-Tolosan","chef":"Thierry Merville"},{"name":"Chez Michèle","address":"57 rue Principale","zipcode":"57810","city":"Languimberg","chef":"Bruno Poiré"},{"name":"Auberge au Boeuf","address":"Rue de l'Eglise","zipcode":"67770","city":"Sessenheim","chef":"Yannick Germain"},{"name":"La Maison des Cariatides","address":"28 rue Chaudronnerie","zipcode":"21000","city":"Dijon","chef":"Thomas Collomb"},{"name":"Château de Castel Novel","address":"D133","zipcode":"19240","city":"Varetz","chef":"Nicolas Soulié"},{"name":"Le Cap","address":"71 Boulevard du Général-de-Gaulle","zipcode":"06230","city":"SAINT-JEAN-CAP-FERRAT","chef":"Yoric Tièche"},{"name":"L'Auberge Basque","address":"quartier Helbarron","zipcode":"64310","city":"Saint-Pée-sur-Nivelle","chef":"Cédric Béchade"},{"name":"Maison Clovis","address":"19 bd Brotteaux","zipcode":"69006","city":"Lyon","chef":"Clovis Khoury"},{"name":"L'Arbre","address":"1, pavé jean-marie leblanc","zipcode":"59152","city":"Gruson","chef":"Yorann Vandriessche"},{"name":"Bras","address":"rte de l'Aubrac","zipcode":"12210","city":"Laguiole","chef":"Sébastien Bras"},{"name":"La Butte","address":"10 rue de la Mer","zipcode":"29260","city":"PLOUIDER","chef":"Nicolas Conraux"},{"name":"Quartier Gourmand","address":"2 av. Gambetta","zipcode":"71700","city":"Tournus","chef":"Robert JACQUET"},{"name":"La Scène Thélème","address":"18 Rue Troyon","zipcode":"75017","city":"Paris","chef":"Julien Roucheteau"},{"name":"Le Bistro des Saveurs","address":"35 Rue de Sélestat","zipcode":"67210","city":"Obernai","chef":"Thierry Schwartz"},{"name":"Le Neuvième Art","address":"173 r. Cuvier","zipcode":"69006","city":"Lyon","chef":"Christophe Roure"},{"name":"Le France","address":"8 place Cupillard","zipcode":"25130","city":"VILLERS-LE-LAC","chef":"Hugues Droz"},{"name":"Auberge de la Mine","address":"le Gué-Plat","zipcode":"61450","city":"La Ferrière-aux-Étangs","chef":"Hubert Nobis"},{"name":"Prairial","address":"11 Rue Chavanne","zipcode":"69001","city":"Lyon","chef":"Gaëtan Gentil"},{"name":"Le Kléber","address":"6 r. A. -Dumont","zipcode":"26400","city":"Crest","chef":"Sébastien Bonnet"},{"name":"Mon Plaisir","address":"22 lieu-dit Journal","zipcode":"25190","city":"Chamesol","chef":"Christian Pilloud"},{"name":"L'Aquarelle","address":"71 A rte du Montil","zipcode":"17920","city":"Breuillet","chef":"Xavier Taffart"},{"name":"Le Carrousel","address":"14 rue du Pont de Morge","zipcode":"63350","city":"MARINGUES","chef":"Olivier Said"},{"name":"St-James Paris","address":"43 av. Bugeaud","zipcode":"75116","city":"Paris","chef":""},{"name":"L'Orangerie du Château","address":"1 Avenue du Docteur Jean Laigret","zipcode":"41000","city":"Blois","chef":"Jean-Marc Molveaux"},{"name":"Château Blanchard","address":"36 rte de St-Galmier","zipcode":"42140","city":"Chazelles-sur-Lyon","chef":"Sylvain Roux"},{"name":"Relais de la Poste","address":"24 avenue de Maremne","zipcode":"40140","city":"Magescq","chef":"Jean Coussau"},{"name":"La Table des Cordeliers","address":"1 r. des Cordeliers","zipcode":"32100","city":"Condom","chef":"Éric Sampietro"},{"name":"Côté Jardin","address":"14 rte de Bourges","zipcode":"45500","city":"Gien","chef":"Arnaud Billard"},{"name":"La Ville Blanche","address":"La Ville Blanche","zipcode":"22300","city":"Rospez","chef":"Jean-Yves Jaguin"},{"name":"Le Domaine du Colombier","address":"270 Chemin de Malombre","zipcode":"26780","city":"Malataverne","chef":"Cyril Fressac"},{"name":"Yoann Conte","address":"13 Vieille-Route-des-Pensières","zipcode":"74290","city":"Veyrier-du-Lac","chef":"Yoann CONTE"},{"name":"Le Clair de la Plume","address":"Place du Mail","zipcode":"26230","city":"Grignan","chef":"Julien ALLANO, Chef de Cuisine"},{"name":"Dyades au Domaine des Étangs","address":"Les Etangs","zipcode":"16310","city":"MASSIGNAC","chef":""},{"name":"Le Bec au Cauchois","address":"22 Rue André Fiquet","zipcode":"76540","city":"Valmont","chef":"Pierre Caillet"},{"name":"La Maison des Bois-Marc Veyrat","address":"Chemin Rural de Manigod au Col de la Croix Fry","zipcode":"74230","city":"Manigod","chef":"Marc Veyrat"},{"name":"Auberge de l'Île Barbe","address":"1 Place Notre-Dame","zipcode":"69009","city":"Lyon 09","chef":"Jean-Christophe Ansanay-Alex"},{"name":"Le Camélia","address":"7 quai Georges Clemenceau","zipcode":"78380","city":"Bougival","chef":"Thierry Conte"},{"name":"Le Cerisier","address":"3 rue de la Gare","zipcode":"62840","city":"LAVENTIE","chef":"Eric Delerue"},{"name":"J.-M. Pérochon","address":"63 avenue de la Grand'Roche","zipcode":"85470","city":"Brétignolles-sur-Mer","chef":"Jean-Marc Pérochon"},{"name":"Maison Rostang","address":"20 rue Rennequin","zipcode":"75017","city":"Paris","chef":"Nicolas Beaumann"},{"name":"Fanny Rey et Jonathan Wahid","address":"12, boulevard Mirabeau","zipcode":"13210","city":"SAINT REMY DE PROVENCE","chef":"Fanny Rey & Jonathan Wahid"},{"name":"TROISGROS","address":"728 Route de Villerest","zipcode":"42155","city":"Ouches","chef":"Michel et César Troisgros"},{"name":"L'Aspérule","address":"34 r. du Pont","zipcode":"89000","city":"Auxerre","chef":"Keigo Kimura"},{"name":"Auberge du Paradis","address":"Le Plâtre-Durand","zipcode":"71570","city":"Saint-Amour-Bellevue","chef":"Cyril Laugier"},{"name":"Le Clocher des Pères","address":"D213","zipcode":"73130","city":"Saint-Martin-sur-la-Chambre","chef":"Pierre Troccaz"},{"name":"Château de Mercuès","address":"Route du Château","zipcode":"46090","city":"Mercuès","chef":"Julien Poisot"},{"name":"Auberge de la Charme","address":"12 r. de la Charme","zipcode":"21370","city":"Prenois","chef":"Nicolas Isnard et David Le Comte"},{"name":"Pierre","address":"7-9 rue Joseph Dufour","zipcode":"71000","city":"Mâcon","chef":"Christian Gaulin"},{"name":"Hostellerie Bérard","address":"Avenue Gabriel-Péri","zipcode":"83740","city":"LA-CADIERE-D'AZUR","chef":"Jean-François Bérard"},{"name":"Le Pêché Gourmand","address":"2 rte de Gap","zipcode":"05100","city":"Briançon","chef":"Sharon et Jimmy Frannais"},{"name":"La Bastide de Capelongue","address":"Chemin des Cabanes","zipcode":"84480","city":"Bonnieux","chef":"Édouard Loubet"},{"name":"La Lorraine","address":"80 rue Principale","zipcode":"57330","city":"Zoufftgen","chef":"Marcel et Lucien Keff"},{"name":"G.a. au Manoir de Rétival","address":"Corniche de Rétival","zipcode":"76490","city":"Caudebec-en-Caux","chef":"David Goerne"},{"name":"Le Coquillage","address":"Lieu-dit Le Buot","zipcode":"35350","city":"Saint-Méloir-des-Ondes","chef":"Olivier et Hugo Roellinger"},{"name":"Girardin","address":"19 Rue des Têtes","zipcode":"68000","city":"Colmar","chef":"Éric Girardin"},{"name":"Auberge de la Diligence","address":"4 r. de la Libération","zipcode":"49440","city":"Loiré","chef":"Michel Cudraz"},{"name":"L'Atelier de Joël Robuchon - Étoile","address":"133 av. des Champs-Élysées","zipcode":"75008","city":"Paris","chef":""},{"name":"La Table de Nans","address":"corniche du Liouquet","zipcode":"13600","city":"La Ciotat","chef":"Nans Gaillard"},{"name":"Le Georges","address":"22 pl. des Épars","zipcode":"28000","city":"CHARTRES","chef":"Nicolas Mendès"},{"name":"La Fourchette des Ducs","address":"6 r. de la Gare","zipcode":"67210","city":"Obernai","chef":"Nicolas Stamm"},{"name":"Avel Vor","address":"25 r. de Locmalo","zipcode":"56290","city":"Port-Louis","chef":"Patrice Gahinet"},{"name":"Le Jardin des Plumes","address":"1 Rue du Milieu","zipcode":"27620","city":"Giverny","chef":"Albert Riera pour Eric Guerin"},{"name":"Aigue Marine","address":"5 r. M. -Berthelot","zipcode":"22220","city":"Tréguier","chef":"LAISNEY Stanislas"},{"name":"SaQuaNa","address":"22 pl. Hamelin","zipcode":"14600","city":"Honfleur","chef":"Alexandre Bourdas"},{"name":"Le Prince Noir - Vivien Durand","address":"1 rue du Prince Noir","zipcode":"33310","city":"Lormont","chef":"Durand Vivien"},{"name":"Gill","address":"9 quai de la Bourse","zipcode":"76000","city":"Rouen","chef":"Gilles Tournadre"},{"name":"Les Tablettes de Jean-Louis Nomicos","address":"16 avenue Bugeaud","zipcode":"75116","city":"Paris 16","chef":"Jean-Louis Nomicos"},{"name":"Les Fresques","address":"D18","zipcode":"24240","city":"Monestier","chef":"Didier Casaguana"},{"name":"Tour d'Argent","address":"15 quai de la Tournelle","zipcode":"75005","city":"Paris","chef":""},{"name":"L'Odas","address":"4 Passage Maurice Lenfant","zipcode":"76000","city":"Rouen","chef":"Olivier Da Silva"},{"name":"La Table de l'Alpaga","address":"66 Allée des Marmousets","zipcode":"74120","city":"Megève","chef":"Anthony Bisquerra"},{"name":"Hostellerie de l'Abbaye de la Celle","address":"10 Place Général de Gaulle","zipcode":"83170","city":"La Celle","chef":"Nicolas Pierantoni"},{"name":"Têtedoie","address":"4 rue du Professeur Pierre MARION","zipcode":"69005","city":"Lyon 05","chef":"Christian Têtedoie"},{"name":"Mirazur","address":"30, Avenue Aristide Briand","zipcode":"06500","city":"Menton","chef":"Mauro Colagreco"},{"name":"Rackham","address":"27 pl. Lacaze Duthiers rčs de l'église","zipcode":"29680","city":"ROSCOFF","chef":"Arthur Péran"},{"name":"L'Atelier de Jean-Luc Rabanel","address":"7 r. des Carmes","zipcode":"13200","city":"Arles","chef":"Jean-Luc Rabanel"},{"name":"Le Relais Bernard Loiseau","address":"2, rue d'Argentine","zipcode":"21210","city":"Saulieu","chef":"Patrick Bertron"},{"name":"Dominique Bouchet","address":"11 Rue Treilhard","zipcode":"75008","city":"Paris","chef":"Dominique Bouchet"},{"name":"La Gourmandière - La Table d'Olivier","address":"D126","zipcode":"56000","city":"Vannes","chef":"Olivier Samson"},{"name":"Thierry Drapeau","address":"La Chabotterie","zipcode":"85260","city":"Saint-Sulpice-le-Verdon","chef":"THIERRY DRAPEAU"},{"name":"Ze Kitchen Galerie","address":"4 r. des Grands-Augustins","zipcode":"75006","city":"Paris","chef":"William Ledeuil"},{"name":"La Dame de Pic","address":"20 Rue du Louvre","zipcode":"75001","city":"Paris 01","chef":"Anne-Sophie Pic"},{"name":"Le Saint-Martin","address":"Avenue des Templiers","zipcode":"06140","city":"Vence","chef":"Jean-Luc Lefrançois"},{"name":"Le Moulin de l'Abbaye","address":"1 avenue Pierre de Bourdeilles","zipcode":"24310","city":"BRANTOME","chef":"LECOIN LOIC"},{"name":"Le Prieuré","address":"r. de la Mairie","zipcode":"42820","city":"Ambierle","chef":"Thierry Fernandes"},{"name":"Le Moulin du Roc","address":"Avenue Eugène Le Roy","zipcode":"24530","city":"Champagnac-de-Belair","chef":"Alain Gardillou"},{"name":"Lamartine","address":"Route du Tunnel du Chat","zipcode":"73370","city":"Le Bourget du Lac","chef":"Pierre Marin"},{"name":"Michel Chabran - La Grande Table","address":"29 Avenue du Quarante-Cinquième Parallèle","zipcode":"26600","city":"Pont-de-l'Isère","chef":"Michel Chabran"},{"name":"1920","address":"373 chemin des follières","zipcode":"74120","city":"Megève","chef":"Julien Gatillon"},{"name":"L'Amphitryon","address":"chemin de Gramont","zipcode":"31770","city":"Colomiers","chef":"Yannick Delpech"},{"name":"Laurent","address":"41 av. Gabriel","zipcode":"75008","city":"Paris","chef":""},{"name":"Kasbür","address":"8 Rue de Dettwiller","zipcode":"67700","city":"Monswiller","chef":"Yves Kieffer"},{"name":"1217","address":"le bourg","zipcode":"69620","city":"Bagnols","chef":"Jean-Alexandre OUARATTA"},{"name":"Le Patio","address":"10 bd de la Plage","zipcode":"33120","city":"Arcachon","chef":"Thierry Renou"},{"name":"Xavier Mathieu","address":"Route de Murs","zipcode":"84220","city":"Joucas","chef":"Mr Xavier Mathieu"},{"name":"Château de Germigney","address":"Rue Edgar-Faure","zipcode":"39600","city":"Port-Lesney","chef":"Pierre Basso Moro"},{"name":"Le Roc Alto","address":"Quartier La Ville","zipcode":"05350","city":"SAINT-VERAN","chef":"Alexandre Lechêne"},{"name":"La Renaissance","address":"20 av. 2e-Division-Blindée","zipcode":"61200","city":"Argentan","chef":"Arnaud Viel"},{"name":"AM par Alexandre Mazzia","address":"9 rue François Rocca","zipcode":"13008","city":"Marseille","chef":"Alexandre Mazzia"},{"name":"Bruno","address":"2350 route des Arcs, Campagne Mariette","zipcode":"83510","city":"Lorgues","chef":"Benjamin Bruno"},{"name":"Casadelmar","address":"Route de la Plage de Palombaggia","zipcode":"20137","city":"Porto-Vecchio","chef":"Fabio Bragagnolo"},{"name":"Le Taillevent","address":"15 Rue Lamennais","zipcode":"75008","city":"Paris","chef":"Alain Solivérès"},{"name":"Le Quinzième - Cyril Lignac","address":"14 rue Cauchy","zipcode":"75015","city":"Paris","chef":"Cyril Lignac"},{"name":"Château de Pray","address":"Rue du Cèdre","zipcode":"37400","city":"Amboise","chef":"Arnaud Philippon"},{"name":"Grand Hôtel du Lion d'Or","address":"69 r. Clemenceau","zipcode":"41200","city":"Romorantin-Lanthenay","chef":"Didier Clément"},{"name":"Au Trou Gascon","address":"40 r. Taine","zipcode":"75012","city":"Paris 12","chef":"Clément THOUVENOT"},{"name":"Le Cloître","address":"Le Cloitre","zipcode":"04300","city":"Mane","chef":"Jerome Roy"},{"name":"Le Fanal","address":"17 Avenue du Fontaulé","zipcode":"66650","city":"Banyuls-sur-Mer","chef":"Pascal Borrell"},{"name":"Le George","address":"31 Avenue George V","zipcode":"75008","city":"Paris","chef":"Simone Zanoni "},{"name":"Alléno Paris au Pavillon Ledoyen","address":"8 avenue Dutuit","zipcode":"75008","city":"Paris","chef":"Yannick Alléno"},{"name":"Ô Saveurs","address":"8 place Ormeaux au village","zipcode":"31180","city":"ROUFFIAC-TOLOSAN","chef":"David Biasibetti"},{"name":"Château de Locguénolé","address":"Locguenole","zipcode":"56700","city":"Kervignac","chef":" Florian BOIRE"},{"name":"Le Puits St-Jacques","address":"av. Victor-Capoul","zipcode":"32600","city":"Pujaudran","chef":"Bernard Bach"},{"name":"Le Mascaret","address":"1 r. de Bas","zipcode":"50560","city":"Blainville-sur-Mer","chef":"Philippe Hardy"},{"name":"La Voile","address":"chemin de la Quessine","zipcode":"83350","city":"Ramatuelle","chef":"Eric Canino"},{"name":"La Table de la Bergerie","address":"La Bergerie","zipcode":"49380","city":"Champ-sur-Layon","chef":"David Guitton"},{"name":"Le Grand Restaurant - Jean-François Piège","address":"7 r. d'Aguesseau","zipcode":"75008","city":"Paris","chef":""},{"name":"Le Gourmet de Sèze","address":"125 Rue de Sèze","zipcode":"69006","city":"Lyon","chef":"Bernard Mariller"},{"name":"Aux Terrasses","address":"18 av. du 23-Janvier","zipcode":"71700","city":"Tournus","chef":"Jean-Michel Carrette"},{"name":"La Maison d'à Côté","address":"17 rue de Chambord","zipcode":"41350","city":"Montlivault","chef":"Christophe Hay"},{"name":"Shang Palace","address":"10 Avenue d'Iéna","zipcode":"75016","city":"Paris 16","chef":"Samuel Lee"},{"name":"Le Pavillon","address":"av. du Verger","zipcode":"62520","city":"Le Touquet-Paris-Plage","chef":""},{"name":"L'Arôme","address":"3 rue St-Philippe-du-Roule","zipcode":"75008","city":"Paris 08","chef":"BOULLAULT THOMAS"},{"name":"Manoir de Lan-Kerellec","address":"allée centrale de Lan-Kerellec","zipcode":"22560","city":"Trébeurden","chef":""},{"name":"Restaurant du Château","address":"15 avenue des Reynats","zipcode":"24650","city":"Chancelade","chef":"HABERLAND Cyril"},{"name":"Château de Sully","address":"D6","zipcode":"14400","city":"Sully","chef":"NIcolas FAGES"},{"name":"La Fourchette du Printemps","address":"30 r. du Printemps","zipcode":"75017","city":"Paris","chef":"Nicolas Mouton"},{"name":"En Marge","address":"Route de Lacroix Falgarde - lieu dit Birol","zipcode":"31320","city":"Aureville","chef":"Frank Renimel"},{"name":"La Table du Gourmet","address":"5 rue 1ère Armée","zipcode":"68340","city":"Riquewihr","chef":"Jean-Luc Brendel"},{"name":"Le Hittau","address":"1 rue du Nouaou","zipcode":"40230","city":"SAINT-VINCENT-DE-TYROSSE","chef":"Yannick Duc"},{"name":"Le Candille","address":"bd C. Rebuffel","zipcode":"06250","city":"Mougins","chef":"Xavier Burelle"},{"name":"Le Clos St-Pierre","address":"pl. de la Mairie","zipcode":"06650","city":"Le Rouret","chef":"Daniel Ettlinger"},{"name":"Le Lièvre Gourmand","address":"28 quai du Châtelet","zipcode":"45000","city":"Orléans","chef":"Tristan Robreau"},{"name":"Les Trois Dômes","address":"20 quai Gailleton","zipcode":"69002","city":"Lyon","chef":""},{"name":"Pierre Orsi","address":"Place Kléber","zipcode":"69006","city":"Lyon 06","chef":"Pierre Orsi"},{"name":"Alexandre","address":"2 rue Xavier Tronc","zipcode":"30128","city":"Garons","chef":"Michel Kayser"},{"name":"Ivan Vautier","address":"3 avenue Henry-Chéron","zipcode":"14000","city":"Caen","chef":"Ivan Vautier"},{"name":"Numéro 3","address":"3 rue du Général de Gaulle","zipcode":"78490","city":"Le Tremblay-sur-Mauldre","chef":"Laurent Trochain"},{"name":"L'Abeille","address":"10 Avenue d'Iéna","zipcode":"75016","city":"Paris 16","chef":"Christophe Moret"},{"name":"L'Épuisette","address":"158 Vallon-des-Auffes","zipcode":"13007","city":"Marseille","chef":"Guillaume SOURRIEU"},{"name":"114, Faubourg","address":"114 r. Fg St-Honoré","zipcode":"75008","city":"Paris 08","chef":"Loïc Dantec"},{"name":"La Bastide St-Antoine","address":"48 av. Henri-Dunant","zipcode":"06130","city":"Grasse","chef":"Jacques Chibois"},{"name":"La Palme d'Or","address":"73 Boulevard de la Croisette","zipcode":"06400","city":"Cannes","chef":"Christian Sinicropi"},{"name":"Ed.Em","address":"4 imp. Chenevottes","zipcode":"21190","city":"Chassagne-Montrachet","chef":"Edouard Mignot"},{"name":"Le Carré d'Alethius","address":"4 r. Paul-Bertois","zipcode":"07800","city":"Charmes-sur-Rhône","chef":"Olivier Samin"},{"name":"Les Terrasses de Lyon","address":"25, montée Saint BArthelémy","zipcode":"69005","city":"Lyon 05","chef":"David Delsart"},{"name":"Serge Vieira","address":"Château du Couffour","zipcode":"15110","city":"Chaudes-Aigues","chef":""},{"name":"Palégrié","address":"Les Ritons","zipcode":"38250","city":"Corrençon-en-Vercors","chef":""},{"name":"Auberge à la Bonne Idée","address":"3 rue des Meuniers","zipcode":"60350","city":"SAINT-JEAN-AUX-BOIS","chef":"Yves Giustinani"},{"name":"Neige d'Été","address":"12 Rue de l'Amiral Roussin","zipcode":"75015","city":"Paris 15","chef":"Hideki Nishi"},{"name":"Cobéa","address":"11 r. Raymond Losserand","zipcode":"75014","city":"Paris 14","chef":"Philippe Bélissent"},{"name":"Jérôme Brochot","address":"Place Beaubernard","zipcode":"71300","city":"Montceau-les-Mines","chef":"Jérôme Brochot"},{"name":"Hélène Darroze","address":"4 rue d'Assas","zipcode":"75006","city":"Paris 06","chef":"Hélène Darroze"},{"name":"Le Magasin aux Vivres","address":"5 Avenue Ney","zipcode":"57000","city":"Metz","chef":"Christophe Dufossé"},{"name":"Carré des Feuillants","address":"14 rue de Castiglione","zipcode":"75001","city":"Paris 01","chef":"Alain Dutournier"},{"name":"Le Passe Temps","address":"52 Rue Tronchet","zipcode":"69006","city":"Lyon","chef":"Younghoon Lee"},{"name":"Flocons de Sel","address":"1775 rte du Leutaz","zipcode":"74120","city":"Megève","chef":"Emmanuel Renaut"},{"name":"Le Gabriel","address":"42 Avenue Gabriel","zipcode":"75008","city":"Paris","chef":"Jérôme Banctel"},{"name":"Château d'Adoménil","address":"","zipcode":"54300","city":"Lunéville","chef":"Cyril Leclerc"},{"name":"Domaine des Séquoias","address":"54 Vie-de-Boussieu","zipcode":"38300","city":"Ruy","chef":"Eric Jambon"},{"name":"Les Rosiers","address":"32 av. Beau Soleil","zipcode":"64200","city":"Biarritz","chef":"Andrée et Stéphane Rosier"},{"name":"Régis et Jacques Marcon","address":"Larsiallas","zipcode":"43290","city":"SAINT-BONNET-LE-FROID","chef":"Régis et  Jacques Marcon"},{"name":"64° Le Restaurant","address":"9-13 Rue du Général de Gaulle","zipcode":"68240","city":"Kaysersberg","chef":"Olivier Nasti"},{"name":"L'Inédit","address":"20 avenue de Fontainebleau","zipcode":"77310","city":"Ponthierry","chef":"Eddy Creuzé"},{"name":"Auberge St-Laurent","address":"1 rue Fontaine","zipcode":"68510","city":"Sierentz","chef":"Laurent Arbeit"},{"name":"Loiseau des Vignes","address":"31 Rue Jean Francois Maufoux","zipcode":"21200","city":"Beaune","chef":"Haddouche Mourad"},{"name":"Auberge du Vieux Puits","address":"5 Avenue Saint-Victor","zipcode":"11360","city":"Fontjoncouse","chef":"Gilles Goujon"},{"name":"La Nouvelle Auberge","address":"9 route Nationale","zipcode":"68230","city":"Wihr-au-Val","chef":"Bernard Leray"},{"name":"Likoké","address":"7 rte de Païolive","zipcode":"07140","city":"Les Vans","chef":"Piet Huysentruyt"},{"name":"Auberge Frankenbourg","address":"13 r. Gén. de Gaulle","zipcode":"67730","city":"La Vancelle","chef":"Sébastien Buecher"},{"name":"David Toutain","address":"29 r. Surcouf","zipcode":"75007","city":"Paris","chef":""},{"name":"La Table du Lancaster","address":"7 rue de Berri","zipcode":"75008","city":"Paris","chef":"Julien Roucheteau"},{"name":"Le Farçon","address":"immeuble la Kalinka","zipcode":"73125","city":"La Tania","chef":"Julien Machet"},{"name":"L'Atelier de Gaztelur","address":"Chemin de Gastelhur","zipcode":"64200","city":"Arcangues","chef":"Alexandre Bousquet"},{"name":"La Grignotière","address":"6 Rue Jean Jaures","zipcode":"59590","city":"Raismes","chef":"Pascal Coulon"},{"name":"Skab","address":"7 Rue de la République","zipcode":"30000","city":"nimes","chef":"Alban BARBETTE et Damien SANCHEZ"},{"name":"Alcyone","address":"1 Place Daviel","zipcode":"13002","city":"MARSEILLE","chef":"Lionel Levy"},{"name":"Claude Darroze","address":"95 cours Gén. Leclerc","zipcode":"33210","city":"Langon","chef":"Jean-Charles Darroze - Sébastien Putcrabey - David Delieuvin"},{"name":"La Laiterie","address":"138 avenue de l'Hippodrome","zipcode":"59130","city":"Lambersart","chef":"Christophe Scherpereel"},{"name":"Les Terraillers","address":"11 Route Chemin-Neuf","zipcode":"06410","city":"Biot","chef":"Michaël Fulci"},{"name":"Hostellerie Jérôme","address":"20 r. Comte de Cessole","zipcode":"06320","city":"La Turbie","chef":"Bruno Cirino"},{"name":"Le Jules Verne","address":"2<E>ème</E> étage Tour Eiffel","zipcode":"75007","city":"Paris","chef":""},{"name":"Château de la Treyne","address":"","zipcode":"46200","city":"Lacave","chef":""},{"name":"Au Fil du Temps","address":"83 av. Auguste-Renoir","zipcode":"06520","city":"Magagnosc","chef":"Sébastien Giraud"},{"name":"Alliance","address":"5 Rue de Poissy","zipcode":"75005","city":"Paris","chef":"Toshitaka Omiya"},{"name":"La Galinette","address":"23 r. Jean Payra","zipcode":"66000","city":"Perpignan","chef":"Christophe Comes"},{"name":"Le Meurice Alain Ducasse","address":"228 Rue de Rivoli","zipcode":"75001","city":"Paris","chef":"Alain Ducasse et Jocelyn Herland"},{"name":"Hervé Busset","address":"D901","zipcode":"12320","city":"Conques","chef":"HERVE BUSSET"},{"name":"Le Strasbourg","address":"24 r. du Col. -Teyssier","zipcode":"57230","city":"Bitche","chef":"Lutz Janisch"},{"name":"Sylvestre","address":"79 rue St-Dominique","zipcode":"75007","city":"Paris","chef":"Sylvestre Wahid"},{"name":"Stéphane Derbord","address":"10 Place du Président Wilson","zipcode":"21000","city":"Dijon","chef":"Stéphane Derbord"},{"name":"Le Gindreau","address":"D5","zipcode":"46150","city":"Saint-Médard","chef":"Pascal Bardet"},{"name":"Ar Men Du","address":"47 rue des îles","zipcode":"29920","city":"Névez","chef":"Jean Marie Le Guen"},{"name":"Georges Blanc","address":"pl. du Marché","zipcode":"01540","city":"Vonnas","chef":"Georges BLANC"},{"name":"Le Sérac","address":"22 r. de la Comtesse","zipcode":"74170","city":"Saint-Gervais-les-Bains","chef":"Raphaël Le Mancq"},{"name":"Les Jardins de l'Espadon","address":"15 place Vendôme","zipcode":"75001","city":"Paris","chef":"Nicolas Sale"},{"name":"Épicure","address":"112 r. Fg St-Honoré","zipcode":"75008","city":"Paris 08","chef":"Eric Frechon"},{"name":"Les Trois Soleils de Montal","address":"St-Jean-Lespinasse","zipcode":"46400","city":"Saint-Céré","chef":"Frédérik Bizat"},{"name":"La Bergerie","address":"D999","zipcode":"63490","city":"Sarpoil","chef":"Cyrille Zen"},{"name":"La Rastègue","address":"48 bd du Levant","zipcode":"83230","city":"Bormes-les-Mimosas","chef":"Jérôme Masson"},{"name":"Haut Bonheur de la Table","address":"18 Grand-Place","zipcode":"59670","city":"Cassel","chef":"Eugène Hobraiche"},{"name":"Gaya Rive Gauche par Pierre Gagnaire","address":"44 r. du Bac","zipcode":"75007","city":"Paris","chef":""},{"name":"Les Prés d'Eugénie - Michel Guérard","address":"pl. de l'Impératrice","zipcode":"40320","city":"Eugénie-les-Bains","chef":"Michel Guérard"},{"name":"L'Orée de la Forêt","address":"255 r. de la Forêt","zipcode":"60600","city":"Étouy","chef":"Nicolas Leclercq"},{"name":"La Grande Maison de Bernard Magrez","address":"10 Rue Labottière","zipcode":"33000","city":"Bordeaux","chef":"Pierre Gagnaire"},{"name":"Saturne","address":"17 r. N.-D.-des-Victoires","zipcode":"75002","city":"Paris","chef":"Sven Chartier"},{"name":"Le Haut-Allier","address":"LE PONT D ALLEYRAS","zipcode":"43580","city":"Alleyras","chef":"Philippe Brun"},{"name":"La Bonne Auberge","address":"15 r. Nationale","zipcode":"57350","city":"Stiring-Wendel","chef":"Lydia Egloff"},{"name":"Penati al Baretto","address":"9 rue Balzac","zipcode":"75008","city":"Paris 08","chef":"Alberico Penati"},{"name":"Maison Jeunet","address":"9 r. de l'Hôtel-de-Ville","zipcode":"39600","city":"Arbois","chef":"Steven Naessens"},{"name":"Meurin","address":"Rue de Lillers","zipcode":"62350","city":"Busnes","chef":"Marc Meurin"},{"name":"Palm Beach","address":"route des Iles Sanguinaires","zipcode":"20000","city":"Ajaccio","chef":""},{"name":"Yam'Tcha","address":"121 r. St-Honoré","zipcode":"75001","city":"Paris","chef":"Adeline Grattard"},{"name":"L'Alchémille","address":"53 rte de Lapoutroie","zipcode":"68240","city":"Kaysersberg","chef":"Jérôme Jaegle"},{"name":"L'Escarbille","address":"8 Rue de Vélizy","zipcode":"92190","city":"Meudon","chef":"Régis Douysset"},{"name":"Goûts et Couleurs","address":"38 r. Bonald","zipcode":"12000","city":"Rodez","chef":"Jean-Luc Fau"},{"name":"Les Pêcheurs","address":"10 boulevard du Maréchal-Juin","zipcode":"06600","city":"Antibes","chef":"Nicolas RONDELLI"},{"name":"ES","address":"91 r. de Grenelle","zipcode":"75007","city":"Paris","chef":"Takayuki Honjo"},{"name":"L'Éveil des Sens","address":"429 bd Paul-Lintier","zipcode":"53100","city":"Mayenne","chef":"Nicolas Nobis"},{"name":"Antoine","address":"10 av. de New-York","zipcode":"75116","city":"Paris 16","chef":"Thibault Sombardier"},{"name":"L'Esquisse","address":"21 rue Royale","zipcode":"74000","city":"Annecy","chef":"Stéphane Dattrino"},{"name":"Au 14 Février","address":"Le Plâtre-Durand","zipcode":"71570","city":"Saint-Amour-Bellevue","chef":"Masafumi Hamano"},{"name":"La Ribaudière","address":"2 pl. du Port","zipcode":"16200","city":"Bourg-Charente","chef":"Thierry Verrat"},{"name":"Atmosphères","address":"618 Route des Tournelles","zipcode":"73370","city":"Le Bourget-du-Lac","chef":"Alain Périllat-Mercerot"},{"name":"Apicius","address":"20 r. d'Artois","zipcode":"75008","city":"Paris","chef":"Jean-Pierre Vigato"},{"name":"Azimut","address":"Immeuble l'Or Blanc","zipcode":"73120","city":"Courchevel-Saint-Bon","chef":"François Moureaux"},{"name":"Le Sénéchal","address":"Sauveterre de Rouergue","zipcode":"12800","city":"Sauveterre-de-Rouergue","chef":"Michel Truchon"},{"name":"Val d'Auge","address":"805 av. du Gén.-de-Gaulle","zipcode":"59910","city":"Bondues","chef":"Christophe Hagnerelle"},{"name":"Le Moulin des Quatre Saisons","address":"r. Gallieni","zipcode":"72200","city":"La Flèche","chef":"Camille Constantin"},{"name":"Les Pyrénées","address":"19 pl. Ch.-de-Gaulle","zipcode":"64220","city":"Saint-Jean-Pied-de-Port","chef":"Philippe Arrambide"},{"name":"Flaveur","address":"25 Rue Gubernatis","zipcode":"06000","city":"Nice","chef":"Gaël et Mickaël Tourteaux"},{"name":"Henri et Joseph","address":"4 r. Léo-le-Bourgo","zipcode":"56100","city":"Lorient","chef":"Philippe Le Lay"},{"name":"Le Grand Véfour","address":"17 rue de Beaujolais","zipcode":"75001","city":"Paris","chef":"Guy Martin"},{"name":"Chantecler","address":"37 Promenade des Anglais","zipcode":"06000","city":"NICE","chef":"Jean-Denis Rieubland"},{"name":"Le Grand Bleu","address":"43 av. de la Gare","zipcode":"24200","city":"Sarlat-la-Canéda","chef":"Maxime Lebrun"},{"name":"Le Favre d'Anne","address":"21 bd du Mar.-Foch","zipcode":"49000","city":"Angers","chef":"Pascal Favre d'Anne"},{"name":"Le Cinq","address":"31 av. George V","zipcode":"75008","city":"Paris 08","chef":"Christian Le Squer"},{"name":"L'Atelier d'Edmond","address":"au Fornet","zipcode":"73150","city":"Val-d'Isère","chef":"Benoît Vidal"},{"name":"Maison Lameloise","address":"36 pl. d'Armes","zipcode":"71150","city":"Chagny","chef":"Eric Pras"},{"name":"Le Jardin des Remparts","address":"10 rue Hôtel-Dieu","zipcode":"21200","city":"Beaune","chef":"Christophe Bocquillon"},{"name":"La Maison de Bournissac","address":"montée d'Eyragues","zipcode":"13550","city":"Les Paluds-des-Noves","chef":"Christian Peyre"},{"name":"Le Belrose","address":"Boulevard des Crêtes","zipcode":"83580","city":"Gassin","chef":"Pietro Volonté"},{"name":"Jérôme Nutile - Le Mas de Boudan","address":"351 Chemin du Mas de Boudan","zipcode":"30000","city":"Nîmes","chef":"Jérôme Nutile"},{"name":"Aux Pesked","address":"59 Rue du Légué","zipcode":"22000","city":"Saint-Brieuc","chef":"Mathieu Aumont"},{"name":"Le Belvédère","address":"11 rte du Maquis Jean-Pierre","zipcode":"12340","city":"Bozouls","chef":"Guillaume Viala"},{"name":"Le Pressoir","address":"7 r. de l'Hôpital","zipcode":"56890","city":"Saint-Avé","chef":"Vincent David"},{"name":"Sola","address":"","zipcode":"75005","city":"Paris 05","chef":"YOSHITAKE Hiroki"},{"name":"Albert 1er","address":"38 rte du Bouchet","zipcode":"74400","city":"Chamonix-Mont-Blanc","chef":"Pierre Maillet"},{"name":"Lucas Carton","address":"9 pl. de la Madeleine","zipcode":"75008","city":"Paris 08","chef":"Julien Dumas"},{"name":"Jean-Luc Tartarin","address":"Square Saint-Roch","zipcode":"76600","city":"Le Havre","chef":"Jean Luc Tartarin"},{"name":"Helen","address":"3 r.Berryer","zipcode":"75008","city":"Paris","chef":"Sébastien Carmona Porto"},{"name":"Assiette Champenoise","address":"40 av. Paul Vaillant-Couturier","zipcode":"51430","city":"Tinqueux","chef":"Arnaud Lallement"},{"name":"La Madeleine","address":"1 Rue Alsace-Lorraine","zipcode":"89100","city":"Sens","chef":"Patrick Gauthier"},{"name":"Le Corot","address":"55 Rue de Versailles","zipcode":"92410","city":"VILLE-D'AVRAY","chef":"Rémi Chambard"},{"name":"Le Relais des Moines","address":"route de Ste-Roseline","zipcode":"83460","city":"Les Arcs","chef":"Sébastien Sanjou"},{"name":"Auberge La Pomme d'Api","address":"49 r. Verderel","zipcode":"29250","city":"Saint-Pol-de-Léon","chef":"Jérémie Le Calvez"},{"name":"Cyril Attrazic","address":"10 rte du Languedoc","zipcode":"48130","city":"Aumont-Aubrac","chef":"ATTRAZIC Cyril"},{"name":"Villa Archange","address":"Rue de l'Ouest","zipcode":"06110","city":"Le Cannet","chef":"Bruno Oger"},{"name":"La Bastide de Moustiers","address":"Parc naturel régional du Verdon, Chemin de Quinson","zipcode":"04360","city":"Moustiers-Sainte-Marie","chef":"Frédéric Garnier"},{"name":"Pont de l'Ouysse","address":"D23","zipcode":"46200","city":"Lacave","chef":"Daniel et Stéphane Chambon"},{"name":"Le Pré du Moulin","address":"rte de Ste-Cécile-les-Vignes","zipcode":"84830","city":"Sérignan-du-Comtat","chef":"Caroline et Pascal Alonso"},{"name":"MaSa","address":"112 avenue Victor-Hugo","zipcode":"92100","city":"Boulogne-Billancourt","chef":"Hervé Rodriguez"},{"name":"La Grande Cascade","address":"Carrefour de Longchamp","zipcode":"75016","city":"Paris","chef":"Frédéric Robert"},{"name":"La Bonne Étape","address":"chemin du lac","zipcode":"04160","city":"Château-Arnoux","chef":"Jany Gleize"},{"name":"Au Souper Fin","address":"1 rte de Clères","zipcode":"76690","city":"Frichemesnil","chef":"Eric Buisset"},{"name":"Une Table au Sud","address":"2 quai du Port","zipcode":"13002","city":"Marseille","chef":"Ludovic Turac"},{"name":"Les Hautes Roches","address":"86 quai de Loire","zipcode":"37210","city":"Rochecorbon","chef":"Didier Edon"},{"name":"Auberge Tiegezh","address":"7 Place de la Gare","zipcode":"56380","city":"Guer","chef":"Baptiste Denieul"},{"name":"Le Grand Cerf","address":"50 rte Nationale","zipcode":"51500","city":"Montchenot","chef":"Dominique Giraudeau et Pascal Champion"},{"name":"La Gouesnière","address":"1 Le Limonay","zipcode":"35400","city":"Saint-Méloir-des-Ondes","chef":"Valade Olivier"},{"name":"Le Pavillon des Boulevards","address":"120 r. Croix-de-Seguey","zipcode":"33000","city":"Bordeaux","chef":"Thomas Morel"},{"name":"Le Prieuré","address":"7 pl. du Chapitre","zipcode":"30400","city":"Villeneuve-lès-Avignon","chef":""},{"name":"Le Jardin de Benjamin","address":"Route de Salernes","zipcode":"83510","city":"Lorgues","chef":"Benjamin Collombat"},{"name":"La Palmeraie","address":"81 Boulevard de Gigaro","zipcode":"83420","city":"La Croix-Valmer","chef":"Jimmy Coutel"},{"name":"Auberge du Bon Laboureur","address":"6 r. Dr Bretonneau","zipcode":"37150","city":"Chenonceaux","chef":"Antoine Jeudi"},{"name":"La Petite Maison de Cucuron","address":"pl. de l'Étang","zipcode":"84160","city":"Cucuron","chef":"Eric Sapet"},{"name":"Auberge des Saints Pères","address":"212 av. de Nonneville","zipcode":"93600","city":"Aulnay-sous-Bois","chef":"Jean-Claude Cahagnet"},{"name":"Le Restaurant","address":"13 rue des Beaux-Arts","zipcode":"75006","city":"Paris 06","chef":"Julien Montbabut"},{"name":"Toya","address":"av. Jean-Monnet","zipcode":"57380","city":"Faulquemont","chef":"Loïc Villemin"},{"name":"Frédéric Doucet","address":"2 avenue de la Libération","zipcode":"71120","city":"Charolles","chef":"Frédéric Doucet"},{"name":"I Salti","address":"route du Reginu","zipcode":"20226","city":"Belgodère","chef":"David Doury"},{"name":"Agapé","address":"51 rue Jouffroy-d'Abbans","zipcode":"75017","city":"Paris 17","chef":"Yoshitaka Takayanagi"},{"name":"La Closerie","address":"bd des Platanes","zipcode":"84240","city":"Ansouis","chef":"Olivier Alemany"},{"name":"L'Aparté","address":"21 Rue de l’Europe","zipcode":"31850","city":"MONTRABE","chef":"le Chef Jérémy Morin"},{"name":"Table des Frères Ibarboure","address":"chemin Ttalienea","zipcode":"64210","city":"Bidart","chef":"Xabi Ibarboure"},{"name":"Paloma","address":"47 Avenue du Moulin de la Croix","zipcode":"06250","city":"Mougins","chef":"Nicolas DECHERCHI"},{"name":"Le Petit Hôtel du Grand Large","address":"11 quai St-Ivy","zipcode":"56510","city":"Portivy","chef":"Hervé Bourdon"},{"name":"Bacon","address":"664 bd Bacon","zipcode":"06160","city":"Juan les Pins","chef":""},{"name":"Le Montaigu","address":"Domaine de la Bretesche","zipcode":"44780","city":"Missillac","chef":""},{"name":"Il Carpaccio – Le Royal Monceau Raffles Paris","address":"37 avenue Hoche","zipcode":"75008","city":"Paris 08","chef":""},{"name":"Py-r","address":"19 descente de la Halle-aux-Poissons","zipcode":"31000","city":"Toulouse","chef":"Pierre Lambinon"},{"name":"L'Atelier du Peintre","address":"1 Rue Schongauer","zipcode":"68000","city":"Colmar","chef":"Loïc Lefebvre"},{"name":"L'Ambroisie","address":"49 rue Elie-Fréron","zipcode":"29000","city":"Quimper","chef":"Gilbert Guyon"},{"name":"Le 1947","address":"Cheval Blanc Courchevel - Le Jardin Alpin","zipcode":"73120","city":"Courchevel 1850","chef":"Yannick Alléno"},{"name":"L'Ambroisie","address":"9 Place des Vosges","zipcode":"75004","city":"Paris","chef":"Bernard Pacaud"},{"name":"Les Berceaux","address":"13 rue des Berceaux","zipcode":"51200","city":"Épernay","chef":"Patrick Michelon"},{"name":"Logis de la Cadène","address":"Place du Marche au Bois","zipcode":"33330","city":"Saint Emilion","chef":"Alexandre Baumard"},{"name":"Les Voiles d'Or","address":"2 chemin de la Falaise","zipcode":"76200","city":"Dieppe","chef":"Tristan Arhan"},{"name":"Château de Noirieux","address":"26 Route du Moulin","zipcode":"49125","city":"Briollay","chef":"Marco Garfagnini"},{"name":"La Grange de Belle-Église","address":"28 bd René-Aimé-Lagabrielle","zipcode":"60540","city":"Belle-Église","chef":"Marc Duval"},{"name":"Les Bories","address":"rte de l'Abbaye de Sénanque","zipcode":"84220","city":"Gordes","chef":"MIRER Gregory"},{"name":"Jin","address":"6 Rue de la Sourdière","zipcode":"75001","city":"Paris","chef":"Taku"},{"name":"Apicius","address":"Marché Saint Pierre 1 étage","zipcode":"63000","city":"Clermont-Ferrand","chef":"Arkadiusz Zuchmanski"},{"name":"Jean-Claude Leclerc","address":"12 rue St-Adjutor","zipcode":"63000","city":"Clermont-Ferrand","chef":"Jean-Claude Leclerc"},{"name":"Gordon Ramsay au Trianon","address":"1 bd de la Reine","zipcode":"78000","city":"Versailles","chef":""},{"name":"Le Pirate","address":"1 le port","zipcode":"20222","city":"Erbalunga","chef":"M Monmessin Jerry"},{"name":"L'Archeste","address":"79 rue de la Tour","zipcode":"75116","city":"Paris","chef":"Yoshiaki Ito"},{"name":"Arpège","address":"84 Rue de Varenne","zipcode":"75007","city":"Paris","chef":"Alain Passard"},{"name":"Le Saint-James","address":"3 pl. Camille-Hostein","zipcode":"33270","city":"BOULIAC","chef":"Nicolas Magie"},{"name":"La Pyramide-Patrick Henriroux","address":"14 Boulevard Fernand Point","zipcode":"38200","city":"Vienne","chef":"Patrick Henriroux"},{"name":"1741","address":"22 Quai des Bateliers","zipcode":"67000","city":"Strasbourg","chef":"Fabien Raux"},{"name":"Le Kintessence","address":"Rue des Clarines","zipcode":"73120","city":"Courchevel 1850","chef":"Jean-Rémi Caillon"},{"name":"Flaveurs","address":"32 Grande-Rue","zipcode":"26000","city":"Valence","chef":"Baptiste Poinot"},{"name":"Le Pré Catelan","address":"Route de Suresnes","zipcode":"75016","city":"Paris","chef":""},{"name":"Le Bon Accueil","address":"32 Grande-Rue","zipcode":"25160","city":"MALBUISSON","chef":"Marc Faivre"},{"name":"Le Kaïku","address":"17 r. de la République","zipcode":"64500","city":"Saint-Jean-de-Luz","chef":"Nicolas Borombo"},{"name":"L'Atelier de Joël Robuchon - St-Germain","address":"5 r. de Montalembert","zipcode":"75007","city":"Paris","chef":""},{"name":"Umami","address":"8 r. des Dentelles","zipcode":"67000","city":"Strasbourg","chef":"René Fieger"},{"name":"Mariottat","address":"25 r. L.-Vivent","zipcode":"47000","city":"Agen","chef":"Éric Mariottat"},{"name":"Michel Trama","address":"52 r. Royale","zipcode":"47270","city":"Puymirol","chef":""},{"name":"Michel Sarran","address":"21 bd A.-Duportal","zipcode":"31000","city":"Toulouse","chef":""},{"name":"Le Puits du Trésor","address":"21 rte des Quatre-Châteaux","zipcode":"11600","city":"Lastours","chef":"Jean-Marc Boyer"},{"name":"Roscanvec","address":"17 r. des Halles","zipcode":"56000","city":"Vannes","chef":"Thierry Seychelles"},{"name":"Itinéraires","address":"5 r. de Pontoise","zipcode":"75005","city":"Paris","chef":"Sylvain Sendra"},{"name":"Au Déjeuner de Sousceyrac","address":"r. Pierre-Benoit","zipcode":"46190","city":"Sousceyrac","chef":"Patrick Lagnès"},{"name":"Le Cercle","address":"44 bd Lahitolle","zipcode":"18000","city":"Bourges","chef":"Pascal Chaupitre et Christophe Lot"},{"name":"Le Mas du Langoustier","address":"","zipcode":"83400","city":"Hyères","chef":""},{"name":"En Pleine Nature","address":"6 pl. de la Mairie","zipcode":"31130","city":"Fonsegrives","chef":"Sylvain Joffre"},{"name":"Le Bistrot de Lagarde","address":"rte d'Apt","zipcode":"84400","city":"Lagarde-d'Apt","chef":"Lloyd Tropeano"},{"name":"Pertica","address":"15 pl. de la République","zipcode":"41100","city":"Vendôme","chef":"Guillaume Foucault"},{"name":"La Table de Chaintré","address":"72 pl. du Luminaire","zipcode":"71570","city":"Chaintré","chef":"Sébastien Grospellier"},{"name":"Cayola","address":"76 promenade de Cayola","zipcode":"85180","city":"Talmont-Saint-Hilaire","chef":""},{"name":"Le Gambetta","address":"12 r. Gambetta","zipcode":"49400","city":"Saumur","chef":"Mickael Pihours"},{"name":"Le Chiquito","address":"3 r. de l'Oise, La Bonneville","zipcode":"95540","city":"Méry-sur-Oise","chef":"Alain Mihura"}]}